{
  "Education": [
    {
      "uniqueid": "479793542048877",
      "name": "Worantex Education & Travel Co., Ltd.",
      "latitude": 13.756695126419,
      "longitude": 100.65198540688,
      "zip": 10240,
      "image": null,
      "link": null,
      "category": {
        "name": "Education",
        "id": "151676848220295"
      },
      "detail": {}
    },
    {
      "uniqueid": "635822989785250",
      "name": "โรงเรียนสุเหร่าหัวหมากน้อย",
      "latitude": 13.758193452349,
      "longitude": 100.65682110974,
      "zip": 10240,
      "image": null,
      "link": null,
      "category": {
        "name": "Education",
        "id": "151676848220295"
      },
      "detail": {}
    },
    {
      "uniqueid": "118729334943407",
      "name": "โรงเรียนอนุบาลทับแก้ว",
      "latitude": 13.744737008173,
      "longitude": 100.65332458877,
      "zip": 10240,
      "image": null,
      "link": null,
      "category": {
        "name": "Education",
        "id": "151676848220295"
      },
      "detail": {}
    },
    {
      "uniqueid": "291409264353356",
      "name": "เรียนภาษาอังกฤษ Bomb Engritz รามคำแหง-ศรีนครินทร์ : พูดอังกฤษได้ใน 1 เดือน",
      "latitude": 13.750953985368,
      "longitude": 100.65632337937,
      "zip": 10240,
      "image": null,
      "link": null,
      "category": {
        "name": "Education",
        "id": "151676848220295"
      },
      "detail": {}
    }
  ],
  "Financial Services": [],
  "Food & Restaurant": [],
  "Lodging": [
    {
      "uniqueid": "1386521651570160",
      "name": "Smoke Land Club",
      "latitude": 13.758262013982,
      "longitude": 100.65488347383,
      "zip": 10240,
      "image": null,
      "link": null,
      "category": {
        "name": "Lodging",
        "id": "161811347201528"
      },
      "detail": {}
    },
    {
      "uniqueid": "164205327082736",
      "name": "Thailand Lodge",
      "latitude": 13.742638026926,
      "longitude": 100.65677337646,
      "zip": 10230,
      "image": null,
      "link": null,
      "category": {
        "name": "Lodging",
        "id": "161811347201528"
      },
      "detail": {}
    },
    {
      "uniqueid": "175293089337628",
      "name": "คลับเชือนจุง",
      "latitude": 13.749920139102,
      "longitude": 100.65689150253,
      "zip": 10240,
      "image": null,
      "link": null,
      "category": {
        "name": "Lodging",
        "id": "161811347201528"
      },
      "detail": {}
    },
    {
      "uniqueid": "1505593926319793",
      "name": "กรุงเทพกรีฑา ซอย7",
      "latitude": 13.753924259698,
      "longitude": 100.65470239976,
      "zip": 0,
      "image": null,
      "link": null,
      "category": {
        "name": "Lodging",
        "id": "161811347201528"
      },
      "detail": {}
    },
    {
      "uniqueid": "740658725962260",
      "name": "หน้าฉาก หลังเลนกล้อง บนแคทวอค",
      "latitude": 13.7442722,
      "longitude": 100.664388,
      "zip": 10240,
      "image": null,
      "link": null,
      "category": {
        "name": "Lodging",
        "id": "161811347201528"
      },
      "detail": {}
    }
  ],
  "Medical & Health": [],
  "Pet Service": [
    {
      "uniqueid": "129114367262722",
      "name": "Tailmore",
      "latitude": 13.74605,
      "longitude": 100.6663,
      "zip": 10250,
      "image": null,
      "link": null,
      "category": {
        "name": "Pet Service",
        "id": "144982405562750"
      },
      "detail": {}
    }
  ],
  "Public Places & Attractions": [],
  "Religious Center": [],
  "Residence & Other": [],
  "Restaurant": [
    {
      "uniqueid": "585411634893120",
      "name": "P4U, Place For You , Bar Restaurant",
      "latitude": 13.751453681,
      "longitude": 100.65671696775,
      "zip": 0,
      "image": null,
      "link": null,
      "category": {
        "name": "Restaurant",
        "id": "273819889375819"
      },
      "detail": {}
    },
    {
      "uniqueid": "689500624459983",
      "name": "Ed Bar",
      "latitude": 13.753650283315,
      "longitude": 100.65547966271,
      "zip": 10240,
      "image": null,
      "link": null,
      "category": {
        "name": "Restaurant",
        "id": "273819889375819"
      },
      "detail": {}
    },
    {
      "uniqueid": "303170883170987",
      "name": "ร้านตำพริกขี้หนู-Prikkienhoo",
      "latitude": 13.75052386,
      "longitude": 100.656784595,
      "zip": 10240,
      "image": null,
      "link": null,
      "category": {
        "name": "Restaurant",
        "id": "273819889375819"
      },
      "detail": {}
    },
    {
      "uniqueid": "489567964427090",
      "name": "Otaku Yakiniku",
      "latitude": 13.75392502773,
      "longitude": 100.65480957509,
      "zip": 10240,
      "image": null,
      "link": null,
      "category": {
        "name": "Restaurant",
        "id": "273819889375819"
      },
      "detail": {}
    },
    {
      "uniqueid": "445614062268546",
      "name": "ร้านเส้นขนมฯ",
      "latitude": 13.750302260341,
      "longitude": 100.65677583185,
      "zip": 10240,
      "image": null,
      "link": null,
      "category": {
        "name": "Restaurant",
        "id": "273819889375819"
      },
      "detail": {}
    },
    {
      "uniqueid": "1404208446488847",
      "name": "ชาบู ชาบู นางใน Kurve 7",
      "latitude": 13.753673499706,
      "longitude": 100.65538041958,
      "zip": 10240,
      "image": null,
      "link": null,
      "category": {
        "name": "Restaurant",
        "id": "273819889375819"
      },
      "detail": {}
    },
    {
      "uniqueid": "796648363680582",
      "name": "ครัวบ้านบัง  กรุงเทพกรีฑาซอย7",
      "latitude": 13.748892734567,
      "longitude": 100.65678100177,
      "zip": 10240,
      "image": null,
      "link": null,
      "category": {
        "name": "Restaurant",
        "id": "273819889375819"
      },
      "detail": {}
    },
    {
      "uniqueid": "1413770908859826",
      "name": "ร้านมัคร์ เจ้าเก่า อดีตกุ๊กโอเรียนเต็ล",
      "latitude": 13.750686988946,
      "longitude": 100.65660628732,
      "zip": 10240,
      "image": null,
      "link": null,
      "category": {
        "name": "Restaurant",
        "id": "273819889375819"
      },
      "detail": {}
    },
    {
      "uniqueid": "1442690325987038",
      "name": "Sweet Meet Love",
      "latitude": 13.750574275939,
      "longitude": 100.65643457794,
      "zip": 10240,
      "image": null,
      "link": null,
      "category": {
        "name": "Restaurant",
        "id": "273819889375819"
      },
      "detail": {}
    },
    {
      "uniqueid": "370268483098302",
      "name": "La Cantina",
      "latitude": 13.753649364728,
      "longitude": 100.65527976771,
      "zip": 10240,
      "image": null,
      "link": null,
      "category": {
        "name": "Restaurant",
        "id": "273819889375819"
      },
      "detail": {}
    },
    {
      "uniqueid": "1585005571778103",
      "name": "มีนา เนื้อตุ๋นหม้อไฟ",
      "latitude": 13.750996382578,
      "longitude": 100.65645424283,
      "zip": 10240,
      "image": null,
      "link": null,
      "category": {
        "name": "Restaurant",
        "id": "273819889375819"
      },
      "detail": {}
    },
    {
      "uniqueid": "840226292685319",
      "name": "Box Noodle",
      "latitude": 13.750382404706,
      "longitude": 100.65676207353,
      "zip": 10240,
      "image": null,
      "link": null,
      "category": {
        "name": "Restaurant",
        "id": "273819889375819"
      },
      "detail": {}
    },
    {
      "uniqueid": "1609227255997544",
      "name": "ร้านอาหารครัวบังราม",
      "latitude": 13.753911850385,
      "longitude": 100.65312570859,
      "zip": 10240,
      "image": null,
      "link": null,
      "category": {
        "name": "Restaurant",
        "id": "273819889375819"
      },
      "detail": {}
    },
    {
      "uniqueid": "335783523298602",
      "name": "สเต็กเทวดา Market Today",
      "latitude": 13.750503894706,
      "longitude": 100.65685326412,
      "zip": 0,
      "image": null,
      "link": null,
      "category": {
        "name": "Restaurant",
        "id": "273819889375819"
      },
      "detail": {}
    },
    {
      "uniqueid": "251921708239454",
      "name": "โรงเรียนนูรุ้ลกุรอาน",
      "latitude": 13.7463216,
      "longitude": 100.66587655,
      "zip": 10240,
      "image": null,
      "link": null,
      "category": {
        "name": "Restaurant",
        "id": "273819889375819"
      },
      "detail": {}
    },
    {
      "uniqueid": "522455214522954",
      "name": "Tea Terrace by Mustafa",
      "latitude": 13.753750447765,
      "longitude": 100.65243175981,
      "zip": 10240,
      "image": null,
      "link": null,
      "category": {
        "name": "Restaurant",
        "id": "273819889375819"
      },
      "detail": {}
    },
    {
      "uniqueid": "493179684091353",
      "name": "Zaap 2 Zaap แซ่บ2แซ่บ อาหารไทย-อีสาน Kurve 7",
      "latitude": 13.753713203721,
      "longitude": 100.65540083346,
      "zip": 10240,
      "image": null,
      "link": null,
      "category": {
        "name": "Restaurant",
        "id": "273819889375819"
      },
      "detail": {}
    },
    {
      "uniqueid": "1511375449126764",
      "name": "Me&mycat Cafe'",
      "latitude": 13.753910541818,
      "longitude": 100.65495125818,
      "zip": 0,
      "image": null,
      "link": null,
      "category": {
        "name": "Restaurant",
        "id": "273819889375819"
      },
      "detail": {}
    },
    {
      "uniqueid": "324137587745706",
      "name": "ร้านตำพริกขี้หนู",
      "latitude": 13.750477764521,
      "longitude": 100.65678584723,
      "zip": 10240,
      "image": null,
      "link": null,
      "category": {
        "name": "Restaurant",
        "id": "273819889375819"
      },
      "detail": {}
    },
    {
      "uniqueid": "507272479384627",
      "name": "Zeezบะหมี่จับกัง By Aom",
      "latitude": 13.753723059378,
      "longitude": 100.65551537788,
      "zip": 10240,
      "image": null,
      "link": null,
      "category": {
        "name": "Restaurant",
        "id": "273819889375819"
      },
      "detail": {}
    },
    {
      "uniqueid": "408692712641192",
      "name": "Market Today กรุงเทพกรีฑาซอย7",
      "latitude": 13.75051484,
      "longitude": 100.65697733,
      "zip": 0,
      "image": null,
      "link": null,
      "category": {
        "name": "Restaurant",
        "id": "273819889375819"
      },
      "detail": {}
    },
    {
      "uniqueid": "1434983230103333",
      "name": "Shaboo Shabu",
      "latitude": 13.751522616346,
      "longitude": 100.65676717186,
      "zip": 10240,
      "image": null,
      "link": null,
      "category": {
        "name": "Restaurant",
        "id": "273819889375819"
      },
      "detail": {}
    },
    {
      "uniqueid": "143669899164339",
      "name": "ข้าวมันไก่ตอน นายภณ",
      "latitude": 13.74878202732,
      "longitude": 100.65672170777,
      "zip": 10240,
      "image": null,
      "link": null,
      "category": {
        "name": "Restaurant",
        "id": "273819889375819"
      },
      "detail": {}
    },
    {
      "uniqueid": "233748763388337",
      "name": "งานโรงเรียน กันซุสซอลีฮีน",
      "latitude": 13.749937484796,
      "longitude": 100.65104101439,
      "zip": 10240,
      "image": null,
      "link": null,
      "category": {
        "name": "Restaurant",
        "id": "273819889375819"
      },
      "detail": {}
    },
    {
      "uniqueid": "1497678443778110",
      "name": "Shaboo Shaboo At Market Today",
      "latitude": 13.751117088922,
      "longitude": 100.65665898832,
      "zip": 10240,
      "image": null,
      "link": null,
      "category": {
        "name": "Restaurant",
        "id": "273819889375819"
      },
      "detail": {}
    },
    {
      "uniqueid": "212292428968318",
      "name": "G&G Fresh Products",
      "latitude": 13.7486296,
      "longitude": 100.6511917,
      "zip": 10240,
      "image": null,
      "link": null,
      "category": {
        "name": "Restaurant",
        "id": "273819889375819"
      },
      "detail": {}
    },
    {
      "uniqueid": "197507376962751",
      "name": "Setthasiri Rama9 Bangkok Modern",
      "latitude": 13.752441845487,
      "longitude": 100.6635049876,
      "zip": 10240,
      "image": null,
      "link": null,
      "category": {
        "name": "Restaurant",
        "id": "273819889375819"
      },
      "detail": {}
    },
    {
      "uniqueid": "282231778612976",
      "name": "ร้านครัวบ้านบัง กรุงเทพกรีฑา",
      "latitude": 13.758385177502,
      "longitude": 100.65570873489,
      "zip": 10240,
      "image": null,
      "link": null,
      "category": {
        "name": "Restaurant",
        "id": "273819889375819"
      },
      "detail": {}
    },
    {
      "uniqueid": "329443560444078",
      "name": "Next Step Co.,Ltd.",
      "latitude": 13.756238954506,
      "longitude": 100.65178501307,
      "zip": 10240,
      "image": null,
      "link": null,
      "category": {
        "name": "Restaurant",
        "id": "273819889375819"
      },
      "detail": {}
    },
    {
      "uniqueid": "789917707713740",
      "name": "The Event",
      "latitude": 13.75123016103,
      "longitude": 100.65640085973,
      "zip": 0,
      "image": null,
      "link": null,
      "category": {
        "name": "Restaurant",
        "id": "273819889375819"
      },
      "detail": {}
    },
    {
      "uniqueid": "378585188985471",
      "name": "รถคาร์เฟ่ Siameki Carfe'",
      "latitude": 13.75023828,
      "longitude": 100.65685632333,
      "zip": 0,
      "image": null,
      "link": null,
      "category": {
        "name": "Restaurant",
        "id": "273819889375819"
      },
      "detail": {}
    },
    {
      "uniqueid": "824240747642051",
      "name": "จันทบุรี ซีฟู๊ด Market Today",
      "latitude": 13.750704665,
      "longitude": 100.656875535,
      "zip": 0,
      "image": null,
      "link": null,
      "category": {
        "name": "Restaurant",
        "id": "273819889375819"
      },
      "detail": {}
    },
    {
      "uniqueid": "1532656966957436",
      "name": "ก๋วยเตี๋ยวสุโขทัยคุณยายรัตน์จันทร์",
      "latitude": 13.752535700566,
      "longitude": 100.65675840904,
      "zip": 0,
      "image": null,
      "link": null,
      "category": {
        "name": "Restaurant",
        "id": "273819889375819"
      },
      "detail": {}
    },
    {
      "uniqueid": "1388541624721039",
      "name": "โหระพา ก๋วยเตี๋ยวเรือ",
      "latitude": 13.750347817112,
      "longitude": 100.65657561204,
      "zip": 10240,
      "image": null,
      "link": null,
      "category": {
        "name": "Restaurant",
        "id": "273819889375819"
      },
      "detail": {}
    },
    {
      "uniqueid": "1443616132519421",
      "name": "จูนาก๋วยเตียวเนื้อน้ำตก",
      "latitude": 13.74943713802,
      "longitude": 100.65016572398,
      "zip": 10240,
      "image": null,
      "link": null,
      "category": {
        "name": "Restaurant",
        "id": "273819889375819"
      },
      "detail": {}
    },
    {
      "uniqueid": "518742168137208",
      "name": "Thai-Thai Massage&spa",
      "latitude": 13.748456895314,
      "longitude": 100.65692581039,
      "zip": 10240,
      "image": null,
      "link": null,
      "category": {
        "name": "Restaurant",
        "id": "273819889375819"
      },
      "detail": {}
    },
    {
      "uniqueid": "292918687473240",
      "name": "ก๋วยเตี๋ยวเนื้อต่อคิว สวนสน",
      "latitude": 13.756444755885,
      "longitude": 100.65159002627,
      "zip": 10240,
      "image": null,
      "link": null,
      "category": {
        "name": "Restaurant",
        "id": "273819889375819"
      },
      "detail": {}
    },
    {
      "uniqueid": "198701176830273",
      "name": "มัณฑณา พระราม9",
      "latitude": 13.754981686113,
      "longitude": 100.65825792853,
      "zip": 10240,
      "image": null,
      "link": null,
      "category": {
        "name": "Restaurant",
        "id": "273819889375819"
      },
      "detail": {}
    },
    {
      "uniqueid": "194326187367883",
      "name": "ISSIRA LOGISTICS CO.,LTD.",
      "latitude": 13.752540541933,
      "longitude": 100.65215648569,
      "zip": 10240,
      "image": null,
      "link": null,
      "category": {
        "name": "Restaurant",
        "id": "273819889375819"
      },
      "detail": {}
    },
    {
      "uniqueid": "702238003218582",
      "name": "Krua Choomsai at Krungthep Kreeta",
      "latitude": 13.7550722,
      "longitude": 100.66133132,
      "zip": 0,
      "image": null,
      "link": null,
      "category": {
        "name": "Restaurant",
        "id": "273819889375819"
      },
      "detail": {}
    },
    {
      "uniqueid": "246143282073863",
      "name": "L'Oreal Professionnel Stylist",
      "latitude": 13.7497085093,
      "longitude": 100.656853797,
      "zip": 0,
      "image": null,
      "link": null,
      "category": {
        "name": "Restaurant",
        "id": "273819889375819"
      },
      "detail": {}
    },
    {
      "uniqueid": "269473589828899",
      "name": "Easy Pharma",
      "latitude": 13.749898136628,
      "longitude": 100.65695118791,
      "zip": 10240,
      "image": null,
      "link": null,
      "category": {
        "name": "Restaurant",
        "id": "273819889375819"
      },
      "detail": {}
    },
    {
      "uniqueid": "1571125616455264",
      "name": "จี๊ดเว่อร์ กระทะฮ้อน",
      "latitude": 13.748838424683,
      "longitude": 100.65670776367,
      "zip": 0,
      "image": null,
      "link": null,
      "category": {
        "name": "Restaurant",
        "id": "273819889375819"
      },
      "detail": {}
    },
    {
      "uniqueid": "160084394049597",
      "name": "@ holy of holies",
      "latitude": 13.747260285522,
      "longitude": 100.65393398648,
      "zip": 10240,
      "image": null,
      "link": null,
      "category": {
        "name": "Restaurant",
        "id": "273819889375819"
      },
      "detail": {}
    },
    {
      "uniqueid": "212679818895756",
      "name": "โจ๊กบางกอก สวนสน",
      "latitude": 13.753531607712,
      "longitude": 100.65561365355,
      "zip": 10240,
      "image": null,
      "link": null,
      "category": {
        "name": "Restaurant",
        "id": "273819889375819"
      },
      "detail": {}
    },
    {
      "uniqueid": "442288072527519",
      "name": "บ่อตกปลาวังมัจฉา",
      "latitude": 13.754564813431,
      "longitude": 100.65422037055,
      "zip": 10240,
      "image": null,
      "link": null,
      "category": {
        "name": "Restaurant",
        "id": "273819889375819"
      },
      "detail": {}
    },
    {
      "uniqueid": "182167988482912",
      "name": "The @Most Presentation Co.,Ltd.",
      "latitude": 13.752745660976,
      "longitude": 100.65639211383,
      "zip": 10240,
      "image": null,
      "link": null,
      "category": {
        "name": "Restaurant",
        "id": "273819889375819"
      },
      "detail": {}
    },
    {
      "uniqueid": "187981584636087",
      "name": "หมู่บ้านสวนสน แยกลำสาลี บางกะปิ",
      "latitude": 13.754665,
      "longitude": 100.6539983,
      "zip": 10220,
      "image": null,
      "link": null,
      "category": {
        "name": "Restaurant",
        "id": "273819889375819"
      },
      "detail": {}
    },
    {
      "uniqueid": "366407383428233",
      "name": "สวนสน บ้านใน",
      "latitude": 13.759681934863,
      "longitude": 100.65800926766,
      "zip": 10240,
      "image": null,
      "link": null,
      "category": {
        "name": "Restaurant",
        "id": "273819889375819"
      },
      "detail": {}
    },
    {
      "uniqueid": "154850894561938",
      "name": "ทาวน์พลัส",
      "latitude": 13.753239959491,
      "longitude": 100.65276785763,
      "zip": 10240,
      "image": null,
      "link": null,
      "category": {
        "name": "Restaurant",
        "id": "273819889375819"
      },
      "detail": {}
    },
    {
      "uniqueid": "393155304122718",
      "name": "Zaap 2 Zaap",
      "latitude": 13.753670045387,
      "longitude": 100.65540377201,
      "zip": 10240,
      "image": null,
      "link": null,
      "category": {
        "name": "Restaurant",
        "id": "273819889375819"
      },
      "detail": {}
    },
    {
      "uniqueid": "407700062603027",
      "name": "เซเว่น ปากซอยกรุงเทพกรีฑา",
      "latitude": 13.74872140122,
      "longitude": 100.65731445337,
      "zip": 10240,
      "image": null,
      "link": null,
      "category": {
        "name": "Restaurant",
        "id": "273819889375819"
      },
      "detail": {}
    },
    {
      "uniqueid": "1443258992562217",
      "name": "ครัวผักปลา fanpage",
      "latitude": 13.7458637,
      "longitude": 100.65361995,
      "zip": 10240,
      "image": null,
      "link": null,
      "category": {
        "name": "Restaurant",
        "id": "273819889375819"
      },
      "detail": {}
    },
    {
      "uniqueid": "163147627074255",
      "name": "กรองทอง วิลล่า พาร์ค",
      "latitude": 13.752471681591,
      "longitude": 100.65642725929,
      "zip": 10240,
      "image": null,
      "link": null,
      "category": {
        "name": "Restaurant",
        "id": "273819889375819"
      },
      "detail": {}
    },
    {
      "uniqueid": "272713446192314",
      "name": "Nippon Tei Japanese Restauran, President Tower",
      "latitude": 13.753328255,
      "longitude": 100.660668985,
      "zip": 10110,
      "image": null,
      "link": null,
      "category": {
        "name": "Restaurant",
        "id": "273819889375819"
      },
      "detail": {}
    },
    {
      "uniqueid": "206267619425747",
      "name": "7-11 กรุงเทพกรีฑา ซอย7",
      "latitude": 13.749963022304,
      "longitude": 100.65741890467,
      "zip": 10240,
      "image": null,
      "link": null,
      "category": {
        "name": "Restaurant",
        "id": "273819889375819"
      },
      "detail": {}
    },
    {
      "uniqueid": "389397874521301",
      "name": "ก๋วยเตี๋ยวหมูเจ๊เล็ก หนองรี ชลบุรี",
      "latitude": 13.755476285424,
      "longitude": 100.6511774459,
      "zip": 10240,
      "image": null,
      "link": null,
      "category": {
        "name": "Restaurant",
        "id": "273819889375819"
      },
      "detail": {}
    },
    {
      "uniqueid": "338643109506374",
      "name": "รร.นูรุ้ลกุรอ่าน(สนามกอล์ฟ)",
      "latitude": 13.747170803657,
      "longitude": 100.66605104537,
      "zip": 10240,
      "image": null,
      "link": null,
      "category": {
        "name": "Restaurant",
        "id": "273819889375819"
      },
      "detail": {}
    },
    {
      "uniqueid": "726247037453237",
      "name": "ร้านไข่กระทะ Market Today",
      "latitude": 13.750337918237,
      "longitude": 100.65652964506,
      "zip": 10240,
      "image": null,
      "link": null,
      "category": {
        "name": "Restaurant",
        "id": "273819889375819"
      },
      "detail": {}
    },
    {
      "uniqueid": "191388964274393",
      "name": "สุสานลำสาลี",
      "latitude": 13.749654174529,
      "longitude": 100.65094752424,
      "zip": 10240,
      "image": null,
      "link": null,
      "category": {
        "name": "Restaurant",
        "id": "273819889375819"
      },
      "detail": {}
    },
    {
      "uniqueid": "203255253085472",
      "name": "หมู่บ้านสวนสน  ลำสาลี",
      "latitude": 13.752552819243,
      "longitude": 100.64971447704,
      "zip": 10240,
      "image": null,
      "link": null,
      "category": {
        "name": "Restaurant",
        "id": "273819889375819"
      },
      "detail": {}
    },
    {
      "uniqueid": "232989330060688",
      "name": "\" ปรุงฝัน \"",
      "latitude": 13.755681838125,
      "longitude": 100.65974239903,
      "zip": 10240,
      "image": null,
      "link": null,
      "category": {
        "name": "Restaurant",
        "id": "273819889375819"
      },
      "detail": {}
    },
    {
      "uniqueid": "236117526461073",
      "name": "หมู่บ้านทาวน์พลัส",
      "latitude": 13.7532926,
      "longitude": 100.652602,
      "zip": 10240,
      "image": null,
      "link": null,
      "category": {
        "name": "Restaurant",
        "id": "273819889375819"
      },
      "detail": {}
    },
    {
      "uniqueid": "363538533668547",
      "name": "หัวหมากน้อย",
      "latitude": 13.75755162,
      "longitude": 100.65505794,
      "zip": 10240,
      "image": null,
      "link": null,
      "category": {
        "name": "Restaurant",
        "id": "273819889375819"
      },
      "detail": {}
    },
    {
      "uniqueid": "1521965521386886",
      "name": "ครัวชุมสาย สมาคมกรุงเทพกรีฑา",
      "latitude": 13.747395750369,
      "longitude": 100.65947800784,
      "zip": 0,
      "image": null,
      "link": null,
      "category": {
        "name": "Restaurant",
        "id": "273819889375819"
      },
      "detail": {}
    },
    {
      "uniqueid": "1524564907812732",
      "name": "โทโมะ สเต็กญี่ป่น",
      "latitude": 13.749115943909,
      "longitude": 100.65605926514,
      "zip": 0,
      "image": null,
      "link": null,
      "category": {
        "name": "Restaurant",
        "id": "273819889375819"
      },
      "detail": {}
    },
    {
      "uniqueid": "186610554742965",
      "name": "สนามบาซ่า",
      "latitude": 13.753759194177,
      "longitude": 100.65250181288,
      "zip": 10240,
      "image": null,
      "link": null,
      "category": {
        "name": "Restaurant",
        "id": "273819889375819"
      },
      "detail": {}
    },
    {
      "uniqueid": "194710653992690",
      "name": "Anantasamakom Thorn Hall",
      "latitude": 13.753176345874,
      "longitude": 100.65100606674,
      "zip": 0,
      "image": null,
      "link": null,
      "category": {
        "name": "Restaurant",
        "id": "273819889375819"
      },
      "detail": {}
    },
    {
      "uniqueid": "249282055204876",
      "name": "ร้านก๋วยเตี๋ยวเนื้อบังสวนสน(อร่อยมาก",
      "latitude": 13.756215074112,
      "longitude": 100.65144720497,
      "zip": 10240,
      "image": null,
      "link": null,
      "category": {
        "name": "Restaurant",
        "id": "273819889375819"
      },
      "detail": {}
    },
    {
      "uniqueid": "379298782127174",
      "name": "ครัวมุสลิม",
      "latitude": 13.748663922262,
      "longitude": 100.65107255111,
      "zip": 10240,
      "image": null,
      "link": null,
      "category": {
        "name": "Restaurant",
        "id": "273819889375819"
      },
      "detail": {}
    },
    {
      "uniqueid": "393125804204613",
      "name": "Quick katsu Markettoday",
      "latitude": 13.750780105591,
      "longitude": 100.65679931641,
      "zip": 0,
      "image": null,
      "link": null,
      "category": {
        "name": "Restaurant",
        "id": "273819889375819"
      },
      "detail": {}
    },
    {
      "uniqueid": "618472334844611",
      "name": "โรงเหล้าแสงจันรามอินทรา",
      "latitude": 13.757089851437,
      "longitude": 100.65956440764,
      "zip": 0,
      "image": null,
      "link": null,
      "category": {
        "name": "Restaurant",
        "id": "273819889375819"
      },
      "detail": {}
    },
    {
      "uniqueid": "793041084114847",
      "name": "เมซอง เชฟ 168",
      "latitude": 13.750653333333,
      "longitude": 100.65672166667,
      "zip": 0,
      "image": null,
      "link": null,
      "category": {
        "name": "Restaurant",
        "id": "273819889375819"
      },
      "detail": {}
    },
    {
      "uniqueid": "121361691341681",
      "name": "@ที่ห้อง..ลำสาลี..City",
      "latitude": 13.750016717888,
      "longitude": 100.65180849522,
      "zip": 10240,
      "image": null,
      "link": null,
      "category": {
        "name": "Restaurant",
        "id": "273819889375819"
      },
      "detail": {}
    },
    {
      "uniqueid": "132989343557177",
      "name": "ครัวกิ่งไผ่",
      "latitude": 13.74529358048,
      "longitude": 100.6535277136,
      "zip": 10240,
      "image": null,
      "link": null,
      "category": {
        "name": "Restaurant",
        "id": "273819889375819"
      },
      "detail": {}
    },
    {
      "uniqueid": "171535623002650",
      "name": "สุเหร่าแดง เสรีไทย",
      "latitude": 13.7523903,
      "longitude": 100.6515841,
      "zip": 0,
      "image": null,
      "link": null,
      "category": {
        "name": "Restaurant",
        "id": "273819889375819"
      },
      "detail": {}
    }
  ],
  "Spa, Beauty & Personal Care": [],
  "Arts & Entertainment": [],
  "Automotive": [
    {
      "uniqueid": "201256580036294",
      "name": "อู่กร ออโต้คาร์เซอร์วิส",
      "latitude": 13.747535600527,
      "longitude": 100.65414985993,
      "zip": 10240,
      "image": null,
      "link": null,
      "category": {
        "name": "Automotive",
        "id": "180410821995109"
      },
      "detail": {}
    },
    {
      "uniqueid": "881597238547791",
      "name": "Mi Garage",
      "latitude": 13.746393670313,
      "longitude": 100.6654715538,
      "zip": 10240,
      "image": null,
      "link": null,
      "category": {
        "name": "Automotive",
        "id": "180410821995109"
      },
      "detail": {}
    }
  ],
  "Business Services": [],
  "Community & Government": [],
  "Event Planning": [],
  "Food & Grocery": [],
  "Home Improvement": [],
  "Professional Services": [],
  "Real Estate": [],
  "Shopping & Retail": [],
  "Sports & Recreation": [],
  "Tours & Sightseeing": [],
  "Travel & Transportation": [
    {
      "uniqueid": "479793542048877",
      "name": "Worantex Education & Travel Co., Ltd.",
      "latitude": 13.756695126419,
      "longitude": 100.65198540688,
      "zip": 10240,
      "image": null,
      "link": null,
      "category": {
        "name": "Travel & Transportation",
        "id": "128232937246338"
      },
      "detail": {}
    }
  ],
  "Abortion Services": [],
  "Accessories Store": [],
  "Accountant": [],
  "Active Life": [],
  "Acupuncture": [],
  "Addiction Resources": [],
  "Admissions Training": [],
  "Adoption Service": [],
  "Adult Education": [],
  "Adult Entertainment": [],
  "Advertising Agency": [],
  "Advertising Service": [],
  "Afghani Restaurant": [],
  "African Methodist Episcopal Church": [],
  "African Restaurant": [],
  "Agricultural Service": [],
  "AIDS Resources": [],
  "Airline": [],
  "Airline Industry Services": [],
  "Airport Lounge": [],
  "Airport Shuttle": [],
  "Airport Terminal": [],
  "Allergist": [],
  "Allergy Doctor": [],
  "Alternative & Holistic Health": [],
  "Ambulance & Rescue": [],
  "American Restaurant": [
    {
      "uniqueid": "161128024029675",
      "name": "Eat Am Are Steak",
      "latitude": 13.752888212925,
      "longitude": 100.65709618861,
      "zip": 0,
      "image": null,
      "link": null,
      "category": {
        "name": "American Restaurant",
        "id": "149803325077018"
      },
      "detail": {}
    }
  ],
  "Amusement": [],
  "Amusement Park Ride": [],
  "Anglican Church": [],
  "Animal Shelter": [],
  "Antique Store": [],
  "Antiques & Vintage": [],
  "Apartment & Condo Building": [],
  "Apostolic Church": [],
  "Appliances": [],
  "Appraiser": [],
  "Arcade": [
    {
      "uniqueid": "302139043246648",
      "name": "มหาวิทยาลัยรามคำแหง 2",
      "latitude": 13.743407882847,
      "longitude": 100.66341161728,
      "zip": 0,
      "image": null,
      "link": null,
      "category": {
        "name": "Arcade",
        "id": "164409566941435"
      },
      "detail": {}
    }
  ],
  "Archaeological Services": [],
  "Archery": [
    {
      "uniqueid": "661265343931150",
      "name": "บ่อตกปลาวังมัจฉา บ้านสวนสน",
      "latitude": 13.753937,
      "longitude": 100.65398685,
      "zip": 10240,
      "image": null,
      "link": null,
      "category": {
        "name": "Archery",
        "id": "170715949640891"
      },
      "detail": {}
    }
  ],
  "Architect": [
    {
      "uniqueid": "401788123257598",
      "name": "Tayo Hansa Architects and Associates Co.,Ltd",
      "latitude": 13.746275905594,
      "longitude": 100.66509330422,
      "zip": 10240,
      "image": null,
      "link": null,
      "category": {
        "name": "Architect",
        "id": "144835265576678"
      },
      "detail": {}
    }
  ],
  "Argentine Restaurant": [],
  "Armed Forces": [],
  "Armored Cars": [],
  "Aromatherapy": [],
  "Art Gallery": [],
  "Art Museum": [],
  "Art Restoration": [],
  "Art School": [],
  "Artistic Services": [],
  "Arts & Crafts Supply Store": [],
  "Arts & Marketing": [],
  "Asian Fusion Restaurant": [
    {
      "uniqueid": "916873071692773",
      "name": "Ban Bang Restaurant Bangkok",
      "latitude": 13.748806242154,
      "longitude": 100.65665245056,
      "zip": 0,
      "image": null,
      "link": null,
      "category": {
        "name": "Asian Fusion Restaurant",
        "id": "174201535963762"
      },
      "detail": {}
    }
  ],
  "Asian Restaurant": [],
  "Assembly of God": [],
  "Athletic Education": [],
  "ATVs & Golf Carts": [],
  "Auction House": [],
  "Audiologist": [],
  "Audiovisual Equipment": [],
  "Auditorium": [],
  "Auto Body Shop": [],
  "Auto Glass": [],
  "Automation Services": [],
  "Automobile Leasing": [],
  "Automotive Consultant": [],
  "Automotive Customizing": [],
  "Automotive Manufacturing": [],
  "Automotive Parts & Accessories": [],
  "Automotive Repair": [],
  "Automotive Restoration": [],
  "Automotive Storage": [],
  "Automotive Trailer Services": [],
  "Automotive Wholesaler": [],
  "Aviation Fuel": [],
  "Aviation School": [],
  "Awnings & Canopies": [],
  "Babysitter": [],
  "Bail Bonds": [],
  "Bakery": [
    {
      "uniqueid": "269377419931518",
      "name": "Maison Croissant",
      "latitude": 13.750598955729,
      "longitude": 100.65673824,
      "zip": 10240,
      "image": null,
      "link": null,
      "category": {
        "name": "Bakery",
        "id": "187827497907070"
      },
      "detail": {}
    },
    {
      "uniqueid": "735888443127112",
      "name": "เมซอง ครัวซองค์",
      "latitude": 13.750648658148,
      "longitude": 100.65669954074,
      "zip": 0,
      "image": null,
      "link": null,
      "category": {
        "name": "Bakery",
        "id": "187827497907070"
      },
      "detail": {}
    },
    {
      "uniqueid": "370835563088523",
      "name": "บางหวาน - กรุงเทพกรีฑา",
      "latitude": 13.7524973,
      "longitude": 100.6528212,
      "zip": 0,
      "image": null,
      "link": null,
      "category": {
        "name": "Bakery",
        "id": "187827497907070"
      },
      "detail": {}
    },
    {
      "uniqueid": "1469208836694736",
      "name": "บางหวาน •sweet Station•",
      "latitude": 13.753689048738,
      "longitude": 100.6553802408,
      "zip": 10240,
      "image": null,
      "link": null,
      "category": {
        "name": "Bakery",
        "id": "187827497907070"
      },
      "detail": {}
    },
    {
      "uniqueid": "528968687130162",
      "name": "ร้านรองท้อง",
      "latitude": 13.753174313309,
      "longitude": 100.65844801604,
      "zip": 10240,
      "image": null,
      "link": null,
      "category": {
        "name": "Bakery",
        "id": "187827497907070"
      },
      "detail": {}
    },
    {
      "uniqueid": "1613768262241240",
      "name": "32coffee",
      "latitude": 13.7454596,
      "longitude": 100.6641922,
      "zip": 10250,
      "image": null,
      "link": null,
      "category": {
        "name": "Bakery",
        "id": "187827497907070"
      },
      "detail": {}
    }
  ],
  "Bands & Musicians": [],
  "Bank": [],
  "Bank Equipment & Service": [],
  "Bankruptcy Lawyer": [],
  "Baptist Church": [],
  "Bar & Grill": [],
  "Barbecue Restaurant": [],
  "Barber Shop": [],
  "Bartending Service": [],
  "Basque Restaurant": [],
  "Batting Cage": [],
  "Beach": [],
  "Beach Resort": [],
  "Beauty Salon": [
    {
      "uniqueid": "428445220577706",
      "name": "Kae Beauty & Salon",
      "latitude": 13.754029816025,
      "longitude": 100.65322604184,
      "zip": 10240,
      "image": null,
      "link": null,
      "category": {
        "name": "Beauty Salon",
        "id": "199236533423806"
      },
      "detail": {}
    }
  ],
  "Bed and Breakfast": [],
  "Beer Garden": [],
  "Belgian Restaurant": [],
  "Big Box Retailer": [],
  "Bike Rental & Bike Share": [],
  "Bike Shop": [],
  "Bingo Hall": [],
  "Biotechnology": [],
  "Blinds & Curtains": [],
  "Blood Bank": [],
  "Boat Dealer": [],
  "Boat Rental": [],
  "Boat Service": [],
  "Boating": [],
  "Book & Magazine Distribution": [],
  "Borough": [],
  "Bowling Alley": [],
  "Brazilian Restaurant": [],
  "Breakfast & Brunch Restaurant": [],
  "Brewery": [],
  "Bridal Shop": [],
  "Bridge": [],
  "British Restaurant": [],
  "Broadcasting & Media Production": [],
  "Brokers & Franchising": [],
  "Buddhist Temple": [],
  "Buffet Restaurant": [],
  "Burger Restaurant": [],
  "Burial & Cremation Service": [],
  "Burmese Restaurant": [],
  "Bus Line": [],
  "Bus Station": [],
  "Business Center": [],
  "Business Consultant": [],
  "Business Supply Service": [],
  "Butcher": [],
  "Cabin": [],
  "Cabinets & Countertops": [],
  "Cable & Satellite Service": [],
  "Cafe": [
    {
      "uniqueid": "722084177837236",
      "name": "Cafe' Amazon at Maket Today",
      "latitude": 13.751194687691,
      "longitude": 100.6566363727,
      "zip": 10240,
      "image": null,
      "link": null,
      "category": {
        "name": "Cafe",
        "id": "197871390225897"
      },
      "detail": {}
    },
    {
      "uniqueid": "811723198891606",
      "name": "Fay's Cafe.",
      "latitude": 13.75140157,
      "longitude": 100.65723714,
      "zip": 0,
      "image": null,
      "link": null,
      "category": {
        "name": "Cafe",
        "id": "197871390225897"
      },
      "detail": {}
    },
    {
      "uniqueid": "1487091488191454",
      "name": "Cafe'amezon Market to Day",
      "latitude": 13.750878415605,
      "longitude": 100.65657382638,
      "zip": 10240,
      "image": null,
      "link": null,
      "category": {
        "name": "Cafe",
        "id": "197871390225897"
      },
      "detail": {}
    },
    {
      "uniqueid": "198824923505035",
      "name": "Cafe for You",
      "latitude": 13.75164329,
      "longitude": 100.65673091,
      "zip": 10240,
      "image": null,
      "link": null,
      "category": {
        "name": "Cafe",
        "id": "197871390225897"
      },
      "detail": {}
    },
    {
      "uniqueid": "1511375449126764",
      "name": "Me&mycat Cafe'",
      "latitude": 13.753910541818,
      "longitude": 100.65495125818,
      "zip": 0,
      "image": null,
      "link": null,
      "category": {
        "name": "Cafe",
        "id": "197871390225897"
      },
      "detail": {}
    },
    {
      "uniqueid": "1435377603404532",
      "name": "Cafe Amazonหมู่บ้านนักกีฬา",
      "latitude": 13.750466462397,
      "longitude": 100.65491708801,
      "zip": 0,
      "image": null,
      "link": null,
      "category": {
        "name": "Cafe",
        "id": "197871390225897"
      },
      "detail": {}
    },
    {
      "uniqueid": "435111689933520",
      "name": "A Pllate Cafe",
      "latitude": 13.752951582533,
      "longitude": 100.66275209933,
      "zip": 10240,
      "image": null,
      "link": null,
      "category": {
        "name": "Cafe",
        "id": "197871390225897"
      },
      "detail": {}
    },
    {
      "uniqueid": "436829053050611",
      "name": "White Heaven Cafe'",
      "latitude": 13.7566204,
      "longitude": 100.6514282,
      "zip": 10240,
      "image": null,
      "link": null,
      "category": {
        "name": "Cafe",
        "id": "197871390225897"
      },
      "detail": {}
    }
  ],
  "Cafeteria": [],
  "Cajun & Creole Restaurant": [],
  "Cambodian Restaurant": [],
  "Camera Store": [],
  "Camp": [
    {
      "uniqueid": "139881606086304",
      "name": "ซัมเมอร์แคมป์ ซัมเมอร์ต่างประเทศ",
      "latitude": 13.756684705347,
      "longitude": 100.65197467804,
      "zip": 10240,
      "image": null,
      "link": null,
      "category": {
        "name": "Camp",
        "id": "205483332814878"
      },
      "detail": {}
    }
  ],
  "Campground": [],
  "Campus Building": [
    {
      "uniqueid": "491180327582961",
      "name": "โบถส์คริตจักร ซอย 10",
      "latitude": 13.744886718,
      "longitude": 100.656403487,
      "zip": 0,
      "image": null,
      "link": null,
      "category": {
        "name": "Campus Building",
        "id": "216161991738736"
      },
      "detail": {}
    }
  ],
  "Canadian Restaurant": [],
  "Candy Store": [],
  "Cantonese Restaurant": [],
  "Car Dealership": [],
  "Car Parts & Accessories": [],
  "Car Rental": [],
  "Car Wash & Detailing": [],
  "Cargo & Freight": [],
  "Caribbean Restaurant": [],
  "Carnival Supplies": [],
  "Carpenter": [],
  "Carpet Cleaner": [],
  "Carpet & Flooring Store": [],
  "Cash Advance Service": [],
  "Casino": [],
  "Caterer": [],
  "Catholic Church": [],
  "Cemetery": [],
  "Charismatic Church": [],
  "Charity Organization": [],
  "Charter Buses": [],
  "Cheerleading": [],
  "Chemicals & Gasses": [],
  "Chicken Restaurant": [],
  "Chicken Wings": [],
  "Child Care": [],
  "Child Protective Services": [],
  "Children's Clothing Store": [],
  "Chinese Restaurant": [
    {
      "uniqueid": "1413770908859826",
      "name": "ร้านมัคร์ เจ้าเก่า อดีตกุ๊กโอเรียนเต็ล",
      "latitude": 13.750686988946,
      "longitude": 100.65660628732,
      "zip": 10240,
      "image": null,
      "link": null,
      "category": {
        "name": "Chinese Restaurant",
        "id": "174483852595760"
      },
      "detail": {}
    }
  ],
  "Chiropractor": [],
  "Christian Church": [],
  "Christian Science Church": [],
  "Church": [
    {
      "uniqueid": "160084394049597",
      "name": "@ holy of holies",
      "latitude": 13.747260285522,
      "longitude": 100.65393398648,
      "zip": 10240,
      "image": null,
      "link": null,
      "category": {
        "name": "Church",
        "id": "192134360811676"
      },
      "detail": {}
    }
  ],
  "Church of Christ": [],
  "Church of God": [],
  "Church of Jesus Christ of Latter-day Saints": [],
  "Circus": [],
  "City Hall": [],
  "Classes": [],
  "Cleaning Service": [],
  "Clergy": [],
  "Clinic": [],
  "Clothing Store": [],
  "Clothing Supply & Distribution": [],
  "Clubhouse": [],
  "Coffee Shop": [
    {
      "uniqueid": "114707605356639",
      "name": "ป้าละไม Coffee Shop",
      "latitude": 13.754668653816,
      "longitude": 100.65603035183,
      "zip": 10240,
      "image": null,
      "link": null,
      "category": {
        "name": "Coffee Shop",
        "id": "128673187201735"
      },
      "detail": {}
    }
  ],
  "Collectibles Store": [],
  "Collection Agency": [],
  "College & University": [],
  "Comedy Club": [],
  "Comic Book Store": [],
  "Commercial Automotive": [],
  "Commercial Bank": [],
  "Commercial & Industrial": [],
  "Commercial & Industrial Equipment": [],
  "Commercial Real Estate": [],
  "Community Center": [],
  "Community Organization": [],
  "Computer Services": [],
  "Computer Store": [],
  "Computer Training": [],
  "Computers & Electronics": [],
  "Concrete Contractor": [],
  "Congregational Church": [],
  "Construction Service & Supply": [],
  "Consulate & Embassy": [],
  "Continental Restaurant": [],
  "Contractor": [],
  "Convenience Store": [],
  "Convent & Monastery": [],
  "Convention Center": [],
  "Cooking Lesson": [],
  "Copying & Printing": [],
  "Copyright Lawyer": [],
  "Copywriting Service": [],
  "Corporate Lawyer": [],
  "Corporate Office": [],
  "Cosmetics & Beauty Supply": [],
  "Costume Shop": [],
  "Cottage": [],
  "Counseling & Mental Health": [],
  "County": [
    {
      "uniqueid": "454397021345223",
      "name": "ตำบลบางคา อ.ราชสาสน์ ฉะเชิงเทรา",
      "latitude": 13.7541529,
      "longitude": 100.6520154,
      "zip": 0,
      "image": null,
      "link": null,
      "category": {
        "name": "County",
        "id": "355728847806223"
      },
      "detail": {}
    }
  ],
  "Courthouse": [],
  "Credit Counseling": [],
  "Criminal Lawyer": [],
  "Crisis Prevention Center": [],
  "Crêperie": [],
  "Cruise": [
    {
      "uniqueid": "123481971171144",
      "name": "อ่าวมะนาว ประจวบคีรีขันธ์",
      "latitude": 13.7512532389,
      "longitude": 100.659218989,
      "zip": 10240,
      "image": null,
      "link": null,
      "category": {
        "name": "Cruise",
        "id": "197280796951159"
      },
      "detail": {}
    }
  ],
  "Cruise Excursions": [],
  "Cuban Restaurant": [],
  "Culinary School": [],
  "Cultural Gifts Store": [],
  "Cupcake Shop": [],
  "Currency Exchange": [],
  "Cyber Cafe": [],
  "Damage Restoration Service": [],
  "Dance Club": [],
  "Dance Instruction": [],
  "Dating Service": [],
  "Day Care & Preschool": [],
  "Day Spa": [],
  "Deck & Patio": [],
  "Deli": [],
  "Dental Equipment": [],
  "Dentist": [],
  "Department Store": [],
  "Dermatologist": [],
  "Dessert Restaurant": [
    {
      "uniqueid": "1442690325987038",
      "name": "Sweet Meet Love",
      "latitude": 13.750574275939,
      "longitude": 100.65643457794,
      "zip": 10240,
      "image": null,
      "link": null,
      "category": {
        "name": "Dessert Restaurant",
        "id": "187153754656815"
      },
      "detail": {}
    }
  ],
  "Dim Sum Restaurant": [],
  "Diner": [],
  "Direct Mail Service": [],
  "Disability Services": [],
  "Disabled Persons Services": [],
  "Disaster Relief": [],
  "Discount Store": [],
  "Dive Bar": [],
  "Divorce & Family Lawyer": [],
  "DJ": [],
  "DMV": [],
  "Document Service": [],
  "Dog Training": [],
  "Dog Walker": [],
  "Donuts & Bagels": [],
  "Dorm": [],
  "Drinking Water Distribution": [],
  "Drive In Restaurant": [],
  "Driving Range": [],
  "Driving School": [],
  "Drug & Alcohol Rehab": [],
  "Drugstore": [],
  "Dry Cleaner": [],
  "DVD & Video Store": [],
  "Eastern Orthodox Church": [],
  "Eco Tours": [],
  "Educational Camp": [],
  "Educational Consultant": [],
  "Educational Organization": [],
  "Educational Research": [],
  "Educational Service": [],
  "Educational Supplies": [],
  "Electrician": [],
  "Electronic Equipment Service": [
    {
      "uniqueid": "543812082395222",
      "name": "ไหนซักที่",
      "latitude": 13.7531743292,
      "longitude": 100.65503181,
      "zip": 0,
      "image": null,
      "link": null,
      "category": {
        "name": "Electronic Equipment Service",
        "id": "183430408363083"
      },
      "detail": {}
    }
  ],
  "Electronics Store": [],
  "Elementary School": [],
  "Elevator Services": [],
  "Email Marketing": [],
  "Emergency Roadside Service": [],
  "Emissions Inspection": [],
  "Employment Agency": [],
  "Employment Lawyer": [],
  "Engineering Service": [],
  "Entertainment Service": [],
  "Environmental Conservation": [],
  "Environmental Consultant": [],
  "Episcopal Church": [],
  "Equipment Service & Supply": [],
  "Escrow Services": [],
  "Estate Lawyer": [],
  "Estate Planning": [],
  "Esthethics": [],
  "Ethiopian Restaurant": [],
  "Ethnic Grocery Store": [],
  "Evangelical Church": [],
  "Event Planner": [],
  "Event Venue": [],
  "Excavation & Wrecking": [],
  "Exchange Program": [],
  "Exotic Car Rental": [],
  "Eyewear": [],
  "Fairground": [],
  "Family Doctor": [],
  "Family Medicine Practice": [],
  "Family Style Restaurant": [],
  "Farm": [],
  "Farmers Market": [],
  "Fashion Designer": [],
  "Fast Food Restaurant": [
    {
      "uniqueid": "796648363680582",
      "name": "ครัวบ้านบัง  กรุงเทพกรีฑาซอย7",
      "latitude": 13.748892734567,
      "longitude": 100.65678100177,
      "zip": 10240,
      "image": null,
      "link": null,
      "category": {
        "name": "Fast Food Restaurant",
        "id": "192803624072087"
      },
      "detail": {}
    }
  ],
  "Ferry & Boat": [],
  "Filipino Restaurant": [],
  "Financial Aid": [],
  "Financial Planning": [],
  "Fine Dining Restaurant": [
    {
      "uniqueid": "507272479384627",
      "name": "Zeezบะหมี่จับกัง By Aom",
      "latitude": 13.753723059378,
      "longitude": 100.65551537788,
      "zip": 10240,
      "image": null,
      "link": null,
      "category": {
        "name": "Fine Dining Restaurant",
        "id": "181289228581329"
      },
      "detail": {}
    },
    {
      "uniqueid": "1650926205139700",
      "name": "บ้าน นำโชค ตามสั่ง",
      "latitude": 13.7566204,
      "longitude": 100.6514282,
      "zip": 10240,
      "image": null,
      "link": null,
      "category": {
        "name": "Fine Dining Restaurant",
        "id": "181289228581329"
      },
      "detail": {}
    }
  ],
  "Fire Protection": [],
  "Fire Station": [],
  "Fireplaces": [],
  "Fireproofing": [],
  "Fireworks Retailer": [],
  "First Aid Class": [],
  "First Aid Service": [],
  "Fish & Chips Shop": [],
  "Fishing": [],
  "Fitness Center": [],
  "Flea Market": [],
  "Florist": [],
  "Fondue Restaurant": [],
  "Food & Beverage Service & Distribution": [],
  "Food Consultant": [],
  "Food Stand": [],
  "Food Truck": [],
  "Forestry & Logging": [],
  "Formal Wear": [],
  "Franchising Service": [],
  "French Restaurant": [],
  "Frozen Yogurt Shop": [],
  "Fruit & Vegetable Store": [],
  "Full Gospel Church": [],
  "Funeral Service": [],
  "Furniture Repair": [],
  "Furniture Store": [],
  "Garage Door Services": [],
  "Garden Center": [],
  "Gardener": [
    {
      "uniqueid": "1494085247470285",
      "name": "Martar's garden",
      "latitude": 13.751131817193,
      "longitude": 100.65625218773,
      "zip": 10240,
      "image": null,
      "link": null,
      "category": {
        "name": "Gardener",
        "id": "156555961070638"
      },
      "detail": {}
    },
    {
      "uniqueid": "689500624459983",
      "name": "Ed Bar",
      "latitude": 13.753650283315,
      "longitude": 100.65547966271,
      "zip": 10240,
      "image": null,
      "link": null,
      "category": {
        "name": "Gardener",
        "id": "156555961070638"
      },
      "detail": {}
    },
    {
      "uniqueid": "304990726338539",
      "name": "ร้านข้าวต้มอุไรวรรณ กรุงเทพกรีฑา แยก 7",
      "latitude": 13.748743331467,
      "longitude": 100.6567778479,
      "zip": 10240,
      "image": null,
      "link": null,
      "category": {
        "name": "Gardener",
        "id": "156555961070638"
      },
      "detail": {}
    }
  ],
  "Gas & Chemical Service": [],
  "Gas Station": [],
  "Gastropub": [],
  "Gay Bar": [],
  "Genealogist": [],
  "Geologic Service": [],
  "German Restaurant": [],
  "Gift Shop": [],
  "Glass Products": [],
  "Glass Service": [],
  "Gluten-Free Restaurant": [],
  "Go Karting": [],
  "Golf Course": [
    {
      "uniqueid": "274264135934263",
      "name": "Unico Golf Course",
      "latitude": 13.747287302382,
      "longitude": 100.66132111414,
      "zip": 0,
      "image": null,
      "link": null,
      "category": {
        "name": "Golf Course",
        "id": "176059775772759"
      },
      "detail": {}
    },
    {
      "uniqueid": "431893960207568",
      "name": "Huamark Golf Course",
      "latitude": 13.744615,
      "longitude": 100.654596,
      "zip": 0,
      "image": null,
      "link": null,
      "category": {
        "name": "Golf Course",
        "id": "176059775772759"
      },
      "detail": {}
    },
    {
      "uniqueid": "204624819567647",
      "name": "Krungthep Kreeta Golf & Sport Club",
      "latitude": 13.744045951329,
      "longitude": 100.66329941549,
      "zip": 10240,
      "image": null,
      "link": null,
      "category": {
        "name": "Golf Course",
        "id": "176059775772759"
      },
      "detail": {}
    },
    {
      "uniqueid": "177283745683439",
      "name": "@บางกอก สนามกอล์ฟยูนิโก",
      "latitude": 13.747477,
      "longitude": 100.658542,
      "zip": 10240,
      "image": null,
      "link": null,
      "category": {
        "name": "Golf Course",
        "id": "176059775772759"
      },
      "detail": {}
    }
  ],
  "Government Organization": [],
  "Governmental Law": [],
  "Graphic Design": [],
  "Greek Restaurant": [],
  "Grocery Store": [],
  "Gun Range": [],
  "Gun Store": [],
  "Gym": [],
  "Hair & Beauty Supply": [],
  "Hair Removal": [],
  "Hair Replacement": [],
  "Hair Salon": [],
  "Hairpieces & Extensions": [],
  "Halal Restaurant": [
    {
      "uniqueid": "561228557244556",
      "name": "ร้านข้าวนาเซีย / Nasia Restaurant",
      "latitude": 13.750523311145,
      "longitude": 100.66138772164,
      "zip": 0,
      "image": null,
      "link": null,
      "category": {
        "name": "Halal Restaurant",
        "id": "193694197335994"
      },
      "detail": {}
    }
  ],
  "Halfway House": [],
  "Handwriting Service": [],
  "Hardware Store": [],
  "Hardware & Tools Service": [],
  "Hawaiian Restaurant": [],
  "Health Agency": [],
  "Health Care Administration": [],
  "Health Food Restaurant": [
    {
      "uniqueid": "1434983230103333",
      "name": "Shaboo Shabu",
      "latitude": 13.751522616346,
      "longitude": 100.65676717186,
      "zip": 10240,
      "image": null,
      "link": null,
      "category": {
        "name": "Health Food Restaurant",
        "id": "156756251046858"
      },
      "detail": {}
    }
  ],
  "Health Food Store": [],
  "Health Spa": [],
  "Healthcare Administrator": [],
  "Heating, Ventilating & Air Conditioning": [],
  "High School": [],
  "Highway": [],
  "Himalayan Restaurant": [],
  "Hindu Temple": [],
  "Historical Place": [],
  "History Museum": [],
  "Holiness Church": [],
  "Home": [
    {
      "uniqueid": "161554873894726",
      "name": "HomeSweeyHome",
      "latitude": 13.74918,
      "longitude": 100.66180571429,
      "zip": 10240,
      "image": null,
      "link": null,
      "category": {
        "name": "Home",
        "id": "197289820310880"
      },
      "detail": {}
    }
  ],
  "Home Cleaning": [],
  "Home Inspection": [],
  "Home Security": [],
  "Home Theater Store": [],
  "Home Window Service": [],
  "Hookah Lounge": [],
  "Horse-Drawn Vehicles": [],
  "Horses": [],
  "Hospital": [
    {
      "uniqueid": "342207392649649",
      "name": "Krungthep Hospital",
      "latitude": 13.749707816756,
      "longitude": 100.65269728238,
      "zip": 0,
      "image": null,
      "link": null,
      "category": {
        "name": "Hospital",
        "id": "133152263416981"
      },
      "detail": {}
    },
    {
      "uniqueid": "323415237816356",
      "name": "Suanracha Pat Hospital",
      "latitude": 13.754103421246,
      "longitude": 100.65372046093,
      "zip": 0,
      "image": null,
      "link": null,
      "category": {
        "name": "Hospital",
        "id": "133152263416981"
      },
      "detail": {}
    },
    {
      "uniqueid": "177661445678949",
      "name": "Rutnin Hospital",
      "latitude": 13.747795558499,
      "longitude": 100.65263618056,
      "zip": 10240,
      "image": null,
      "link": null,
      "category": {
        "name": "Hospital",
        "id": "133152263416981"
      },
      "detail": {}
    }
  ],
  "Hospitality Service": [],
  "Hostel": [],
  "Hot Air Balloons": [],
  "Hot Dog Joint": [],
  "Hot Dog Stand": [],
  "Hotel Supply Service": [],
  "House Sitter": [],
  "Housewares": [],
  "Housing Assistance Service": [],
  "Housing & Homeless Shelter": [],
  "Hungarian Restaurant": [],
  "Hunting and Fishing": [],
  "Ice Cream Parlor": [],
  "Ice Machines": [],
  "Ice Skating": [],
  "Image Consultant": [],
  "Independent Church": [],
  "Indian Restaurant": [],
  "Indonesian Restaurant": [],
  "Inn": [],
  "Insurance Agent": [],
  "Insurance Broker": [],
  "Interdenominational Church": [],
  "Interior Designer": [
    {
      "uniqueid": "76134583118",
      "name": "306 studio design.co.,ltd",
      "latitude": 13.753352293138,
      "longitude": 100.65215883538,
      "zip": 10240,
      "image": null,
      "link": null,
      "category": {
        "name": "Interior Designer",
        "id": "199438050070864"
      },
      "detail": {}
    }
  ],
  "Internal Medicine": [],
  "International Restaurant": [],
  "Internet Cafe": [],
  "Internet Service Provider": [],
  "Inventory Control Service": [],
  "Investing Service": [],
  "Irish Restaurant": [],
  "Italian Restaurant": [
    {
      "uniqueid": "370268483098302",
      "name": "La Cantina",
      "latitude": 13.753649364728,
      "longitude": 100.65527976771,
      "zip": 10240,
      "image": null,
      "link": null,
      "category": {
        "name": "Italian Restaurant",
        "id": "193831710644458"
      },
      "detail": {}
    },
    {
      "uniqueid": "793041084114847",
      "name": "เมซอง เชฟ 168",
      "latitude": 13.750653333333,
      "longitude": 100.65672166667,
      "zip": 0,
      "image": null,
      "link": null,
      "category": {
        "name": "Italian Restaurant",
        "id": "193831710644458"
      },
      "detail": {}
    },
    {
      "uniqueid": "304518226405584",
      "name": "Le Cantina Kurve 7",
      "latitude": 13.753631311265,
      "longitude": 100.65500020981,
      "zip": 0,
      "image": null,
      "link": null,
      "category": {
        "name": "Italian Restaurant",
        "id": "193831710644458"
      },
      "detail": {}
    }
  ],
  "Janitorial Service": [],
  "Japanese Restaurant": [
    {
      "uniqueid": "223155657738274",
      "name": "Fuji Japanese Restaurant",
      "latitude": 13.75072604,
      "longitude": 100.66345596,
      "zip": 10240,
      "image": null,
      "link": null,
      "category": {
        "name": "Japanese Restaurant",
        "id": "199035016778342"
      },
      "detail": {}
    }
  ],
  "Jazz Club": [],
  "Jewelry Store": [],
  "Jewelry Supplier": [],
  "Juvenile Law": [],
  "Karaoke": [],
  "Kennel": [],
  "Kingdom Hall": [],
  "Kitchen Construction": [],
  "Korean Restaurant": [],
  "Kosher Restaurant": [],
  "Labor & Employment Law": [],
  "Laboratory Equipment": [],
  "Landscaping": [],
  "Language School": [],
  "Laser Hair Removal": [],
  "Laser Tag": [],
  "Late Night Restaurant": [
    {
      "uniqueid": "1524564907812732",
      "name": "โทโมะ สเต็กญี่ป่น",
      "latitude": 13.749115943909,
      "longitude": 100.65605926514,
      "zip": 0,
      "image": null,
      "link": null,
      "category": {
        "name": "Late Night Restaurant",
        "id": "171466272901863"
      },
      "detail": {}
    }
  ],
  "Latin American Restaurant": [],
  "Laundromat": [],
  "Law Enforcement": [],
  "Law Practice": [],
  "Lebanese Restaurant": [],
  "Lifestyle Services": [],
  "Lighting Fixtures": [],
  "Limo Service": [],
  "Liquor Store": [],
  "Live & Raw Food Restaurant": [],
  "Loans": [],
  "Lobbyist": [],
  "Local Education": [],
  "Locksmith": [],
  "Lodge": [
    {
      "uniqueid": "164205327082736",
      "name": "Thailand Lodge",
      "latitude": 13.742638026926,
      "longitude": 100.65677337646,
      "zip": 10230,
      "image": null,
      "link": null,
      "category": {
        "name": "Lodge",
        "id": "199611383389617"
      },
      "detail": {}
    },
    {
      "uniqueid": "1386521651570160",
      "name": "Smoke Land Club",
      "latitude": 13.758262013982,
      "longitude": 100.65488347383,
      "zip": 10240,
      "image": null,
      "link": null,
      "category": {
        "name": "Lodge",
        "id": "199611383389617"
      },
      "detail": {}
    },
    {
      "uniqueid": "175293089337628",
      "name": "คลับเชือนจุง",
      "latitude": 13.749920139102,
      "longitude": 100.65689150253,
      "zip": 10240,
      "image": null,
      "link": null,
      "category": {
        "name": "Lodge",
        "id": "199611383389617"
      },
      "detail": {}
    },
    {
      "uniqueid": "1505593926319793",
      "name": "กรุงเทพกรีฑา ซอย7",
      "latitude": 13.753924259698,
      "longitude": 100.65470239976,
      "zip": 0,
      "image": null,
      "link": null,
      "category": {
        "name": "Lodge",
        "id": "199611383389617"
      },
      "detail": {}
    },
    {
      "uniqueid": "740658725962260",
      "name": "หน้าฉาก หลังเลนกล้อง บนแคทวอค",
      "latitude": 13.7442722,
      "longitude": 100.664388,
      "zip": 10240,
      "image": null,
      "link": null,
      "category": {
        "name": "Lodge",
        "id": "199611383389617"
      },
      "detail": {}
    }
  ],
  "Lottery Retailer": [],
  "Lounge": [],
  "Luggage Service": [],
  "Lutheran Church": [],
  "Maid & Butler": [],
  "Makeup Artist": [],
  "Malaysian Restaurant": [],
  "Malpractice Law": [],
  "Management Service": [],
  "Manufacturing": [
    {
      "uniqueid": "253158958125917",
      "name": "Manufacturing Expo @ BITEC Bangna",
      "latitude": 13.756024342642,
      "longitude": 100.65384600114,
      "zip": 0,
      "image": null,
      "link": null,
      "category": {
        "name": "Manufacturing",
        "id": "178048968909016"
      },
      "detail": {}
    }
  ],
  "Marina": [],
  "Marine Equipment": [],
  "Marine Service Station": [],
  "Market": [
    {
      "uniqueid": "336192623100214",
      "name": "Market Today",
      "latitude": 13.750974989481,
      "longitude": 100.65648085414,
      "zip": 10240,
      "image": null,
      "link": null,
      "category": {
        "name": "Market",
        "id": "162813670434541"
      },
      "detail": {}
    },
    {
      "uniqueid": "408692712641192",
      "name": "Market Today กรุงเทพกรีฑาซอย7",
      "latitude": 13.75051484,
      "longitude": 100.65697733,
      "zip": 0,
      "image": null,
      "link": null,
      "category": {
        "name": "Market",
        "id": "162813670434541"
      },
      "detail": {}
    },
    {
      "uniqueid": "590309341024403",
      "name": "Market Today กรุงเทพกรีฑา",
      "latitude": 13.751400299383,
      "longitude": 100.65557830976,
      "zip": 10240,
      "image": null,
      "link": null,
      "category": {
        "name": "Market",
        "id": "162813670434541"
      },
      "detail": {}
    },
    {
      "uniqueid": "335783523298602",
      "name": "สเต็กเทวดา Market Today",
      "latitude": 13.750503894706,
      "longitude": 100.65685326412,
      "zip": 0,
      "image": null,
      "link": null,
      "category": {
        "name": "Market",
        "id": "162813670434541"
      },
      "detail": {}
    },
    {
      "uniqueid": "824240747642051",
      "name": "จันทบุรี ซีฟู๊ด Market Today",
      "latitude": 13.750704665,
      "longitude": 100.656875535,
      "zip": 0,
      "image": null,
      "link": null,
      "category": {
        "name": "Market",
        "id": "162813670434541"
      },
      "detail": {}
    },
    {
      "uniqueid": "355457041305254",
      "name": "Amazon At Market to Day",
      "latitude": 13.75119398,
      "longitude": 100.65662567,
      "zip": 0,
      "image": null,
      "link": null,
      "category": {
        "name": "Market",
        "id": "162813670434541"
      },
      "detail": {}
    },
    {
      "uniqueid": "722084177837236",
      "name": "Cafe' Amazon at Maket Today",
      "latitude": 13.751194687691,
      "longitude": 100.6566363727,
      "zip": 10240,
      "image": null,
      "link": null,
      "category": {
        "name": "Market",
        "id": "162813670434541"
      },
      "detail": {}
    },
    {
      "uniqueid": "393125804204613",
      "name": "Quick katsu Markettoday",
      "latitude": 13.750780105591,
      "longitude": 100.65679931641,
      "zip": 0,
      "image": null,
      "link": null,
      "category": {
        "name": "Market",
        "id": "162813670434541"
      },
      "detail": {}
    },
    {
      "uniqueid": "1487091488191454",
      "name": "Cafe'amezon Market to Day",
      "latitude": 13.750878415605,
      "longitude": 100.65657382638,
      "zip": 10240,
      "image": null,
      "link": null,
      "category": {
        "name": "Market",
        "id": "162813670434541"
      },
      "detail": {}
    },
    {
      "uniqueid": "687416367991203",
      "name": "ไข่กระทะ-Market Today",
      "latitude": 13.750530050124,
      "longitude": 100.6567630008,
      "zip": 10240,
      "image": null,
      "link": null,
      "category": {
        "name": "Market",
        "id": "162813670434541"
      },
      "detail": {}
    },
    {
      "uniqueid": "1497678443778110",
      "name": "Shaboo Shaboo At Market Today",
      "latitude": 13.751117088922,
      "longitude": 100.65665898832,
      "zip": 10240,
      "image": null,
      "link": null,
      "category": {
        "name": "Market",
        "id": "162813670434541"
      },
      "detail": {}
    },
    {
      "uniqueid": "726247037453237",
      "name": "ร้านไข่กระทะ Market Today",
      "latitude": 13.750337918237,
      "longitude": 100.65652964506,
      "zip": 10240,
      "image": null,
      "link": null,
      "category": {
        "name": "Market",
        "id": "162813670434541"
      },
      "detail": {}
    },
    {
      "uniqueid": "279860182215567",
      "name": "Chaboo Chabu at Market Today",
      "latitude": 13.750097166898,
      "longitude": 100.65472904791,
      "zip": 0,
      "image": null,
      "link": null,
      "category": {
        "name": "Market",
        "id": "162813670434541"
      },
      "detail": {}
    },
    {
      "uniqueid": "321318974700979",
      "name": "Samantha Decor : Market Today",
      "latitude": 13.751094111338,
      "longitude": 100.65642789024,
      "zip": 0,
      "image": null,
      "link": null,
      "category": {
        "name": "Market",
        "id": "162813670434541"
      },
      "detail": {}
    },
    {
      "uniqueid": "1508922249321711",
      "name": "ร้านโหระพา Market Today",
      "latitude": 13.75034256037,
      "longitude": 100.65659334303,
      "zip": 10240,
      "image": null,
      "link": null,
      "category": {
        "name": "Market",
        "id": "162813670434541"
      },
      "detail": {}
    },
    {
      "uniqueid": "778845512146585",
      "name": "ฟอร์จูน Marketting True ชั้น27",
      "latitude": 13.752240180969,
      "longitude": 100.6549987793,
      "zip": 0,
      "image": null,
      "link": null,
      "category": {
        "name": "Market",
        "id": "162813670434541"
      },
      "detail": {}
    },
    {
      "uniqueid": "726044994127708",
      "name": "ตลาดนัดเปิดท้าย Market Today",
      "latitude": 13.7475605,
      "longitude": 100.6541443,
      "zip": 10240,
      "image": null,
      "link": null,
      "category": {
        "name": "Market",
        "id": "162813670434541"
      },
      "detail": {}
    }
  ],
  "Market Research Consultant": [],
  "Marketing Consultant": [],
  "Martial Arts": [],
  "Masonry": [],
  "Massage": [
    {
      "uniqueid": "518742168137208",
      "name": "Thai-Thai Massage&spa",
      "latitude": 13.748456895314,
      "longitude": 100.65692581039,
      "zip": 10240,
      "image": null,
      "link": null,
      "category": {
        "name": "Massage",
        "id": "109578329118821"
      },
      "detail": {}
    },
    {
      "uniqueid": "526944457326438",
      "name": "ร้านนวด บ้านไทย",
      "latitude": 13.754718613248,
      "longitude": 100.65172587233,
      "zip": 10240,
      "image": null,
      "link": null,
      "category": {
        "name": "Massage",
        "id": "109578329118821"
      },
      "detail": {}
    }
  ],
  "Mattress Manufacturing": [],
  "Mattress Wholesale": [],
  "Mattresses & Bedding": [],
  "Meat Shop": [],
  "Medical Center": [
    {
      "uniqueid": "176381805735968",
      "name": "Bangkok Medical Center",
      "latitude": 13.756048453608,
      "longitude": 100.65321927835,
      "zip": 0,
      "image": null,
      "link": null,
      "category": {
        "name": "Medical Center",
        "id": "228143393877753"
      },
      "detail": {}
    }
  ],
  "Medical Equipment": [],
  "Medical Lab": [],
  "Medical Research": [],
  "Medical School": [],
  "Medical Spa": [],
  "Medical Supplies": [],
  "Mediterranean Restaurant": [],
  "Meeting Room": [],
  "Mennonite Church": [],
  "Men's Clothing Store": [],
  "Merchandising Service": [],
  "Metals": [
    {
      "uniqueid": "254919291358736",
      "name": "กรุงเทพกรีฑารีไชเคิล",
      "latitude": 13.74770696868,
      "longitude": 100.65814868699,
      "zip": 10240,
      "image": null,
      "link": null,
      "category": {
        "name": "Metals",
        "id": "182387268467261"
      },
      "detail": {}
    }
  ],
  "Methodist Church": [],
  "Mexican Restaurant": [],
  "Middle Eastern Restaurant": [],
  "Military Base": [],
  "Miniature Golf": [],
  "Mission": [],
  "Mobile Homes": [],
  "Mobile Phone Shop": [],
  "Modeling Agency": [],
  "Modern Art Museum": [],
  "Modern European Restaurant": [],
  "Mongolian Restaurant": [],
  "Monument": [],
  "Moroccan Restaurant": [],
  "Mortgage Brokers": [],
  "Mosque": [
    {
      "uniqueid": "162991473902723",
      "name": "ซอยราม60 สวนสน สุเหร่าหัวหมากน้อย",
      "latitude": 13.7576744,
      "longitude": 100.6579836,
      "zip": 10240,
      "image": null,
      "link": null,
      "category": {
        "name": "Mosque",
        "id": "179905035385252"
      },
      "detail": {}
    },
    {
      "uniqueid": "233748763388337",
      "name": "งานโรงเรียน กันซุสซอลีฮีน",
      "latitude": 13.749937484796,
      "longitude": 100.65104101439,
      "zip": 10240,
      "image": null,
      "link": null,
      "category": {
        "name": "Mosque",
        "id": "179905035385252"
      },
      "detail": {}
    },
    {
      "uniqueid": "611323838924598",
      "name": "มัสยิดกันซุสซอลีฮีน",
      "latitude": 13.751256929612,
      "longitude": 100.6501106919,
      "zip": 10240,
      "image": null,
      "link": null,
      "category": {
        "name": "Mosque",
        "id": "179905035385252"
      },
      "detail": {}
    }
  ],
  "Motel": [],
  "Motorcycle Repair": [],
  "Motorcycles": [],
  "Mountain Biking": [],
  "Mover": [],
  "Movie & Television Studio": [],
  "Movie Theater": [],
  "Music Lessons & Instruction": [],
  "Music Production": [],
  "Music Store": [],
  "Musical Instrument Store": [],
  "Nail Salon": [],
  "Nanny": [],
  "National Park": [],
  "Nazarene Church": [],
  "Nepalese Restaurant": [],
  "New American Restaurant": [
    {
      "uniqueid": "161128024029675",
      "name": "Eat Am Are Steak",
      "latitude": 13.752888212925,
      "longitude": 100.65709618861,
      "zip": 0,
      "image": null,
      "link": null,
      "category": {
        "name": "New American Restaurant",
        "id": "110107385737667"
      },
      "detail": {}
    }
  ],
  "Night Club": [
    {
      "uniqueid": "447849721925407",
      "name": "Night Barzar Club",
      "latitude": 13.75202388791,
      "longitude": 100.6521358945,
      "zip": 0,
      "image": null,
      "link": null,
      "category": {
        "name": "Night Club",
        "id": "191478144212980"
      },
      "detail": {}
    },
    {
      "uniqueid": "232774210184371",
      "name": "Night Barsar Club",
      "latitude": 13.757628108421,
      "longitude": 100.65572052222,
      "zip": 0,
      "image": null,
      "link": null,
      "category": {
        "name": "Night Club",
        "id": "191478144212980"
      },
      "detail": {}
    },
    {
      "uniqueid": "491726017517047",
      "name": "Night Barzar Football Club",
      "latitude": 13.757636101207,
      "longitude": 100.65570811322,
      "zip": 0,
      "image": null,
      "link": null,
      "category": {
        "name": "Night Club",
        "id": "191478144212980"
      },
      "detail": {}
    }
  ],
  "Nightlife": [
    {
      "uniqueid": "506728072758552",
      "name": "ครัวเจ๊เล็ก",
      "latitude": 13.746275905594,
      "longitude": 100.66509330422,
      "zip": 10240,
      "image": null,
      "link": null,
      "category": {
        "name": "Nightlife",
        "id": "354275401259620"
      },
      "detail": {}
    }
  ],
  "Nondenominational Church": [],
  "Notary Public": [],
  "Nursing": [
    {
      "uniqueid": "342207392649649",
      "name": "Krungthep Hospital",
      "latitude": 13.749707816756,
      "longitude": 100.65269728238,
      "zip": 0,
      "image": null,
      "link": null,
      "category": {
        "name": "Nursing",
        "id": "182360455136767"
      },
      "detail": {}
    }
  ],
  "Nursing Home": [],
  "Nutritionist": [],
  "OBGYN": [],
  "Occupational Safety": [],
  "Occupational Therapist": [],
  "Ocean": [],
  "Oil Lube & Filter Service": [],
  "Oncologist": [],
  "Ophthalmologist": [],
  "Optometrist": [],
  "Orchestra": [],
  "Organization": [
    {
      "uniqueid": "1388710934684651",
      "name": "สำนักงานคุมประพฤติกรุงเทพมหานคร 5",
      "latitude": 13.7476631,
      "longitude": 100.6670257,
      "zip": 0,
      "image": null,
      "link": null,
      "category": {
        "name": "Organization",
        "id": "198503866828628"
      },
      "detail": {}
    },
    {
      "uniqueid": "419198671532405",
      "name": "บริษัท ไทยสากล กรุ๊ป",
      "latitude": 13.746275905594,
      "longitude": 100.66509330422,
      "zip": 0,
      "image": null,
      "link": null,
      "category": {
        "name": "Organization",
        "id": "198503866828628"
      },
      "detail": {}
    }
  ],
  "Otolaryngologist": [],
  "Outdoor Equipment Store": [],
  "Outdoor Recreation": [],
  "Outdoor Services": [],
  "Outdoors": [
    {
      "uniqueid": "130451553716090",
      "name": "พิมพ์ Inkjet Indoor Outdoor ฉลากสินค้า, ธงญี่ปุ่น, Rollup, XStand",
      "latitude": 13.752925736808,
      "longitude": 100.6562776531,
      "zip": 10240,
      "image": null,
      "link": null,
      "category": {
        "name": "Outdoors",
        "id": "272705352802676"
      },
      "detail": {}
    },
    {
      "uniqueid": "186494428223557",
      "name": "ท่ามกลางธรรมชาติ",
      "latitude": 13.74777167,
      "longitude": 100.65630833,
      "zip": 0,
      "image": null,
      "link": null,
      "category": {
        "name": "Outdoors",
        "id": "272705352802676"
      },
      "detail": {}
    },
    {
      "uniqueid": "540840609350925",
      "name": "ซอยกรุงเทพกรีฑา",
      "latitude": 13.748401167694,
      "longitude": 100.6544894038,
      "zip": 10240,
      "image": null,
      "link": null,
      "category": {
        "name": "Outdoors",
        "id": "272705352802676"
      },
      "detail": {}
    },
    {
      "uniqueid": "326272130910073",
      "name": "ลานเบียร์ Markat Today",
      "latitude": 13.75133268,
      "longitude": 100.65675099,
      "zip": 0,
      "image": null,
      "link": null,
      "category": {
        "name": "Outdoors",
        "id": "272705352802676"
      },
      "detail": {}
    },
    {
      "uniqueid": "590309341024403",
      "name": "Market Today กรุงเทพกรีฑา",
      "latitude": 13.751400299383,
      "longitude": 100.65557830976,
      "zip": 10240,
      "image": null,
      "link": null,
      "category": {
        "name": "Outdoors",
        "id": "272705352802676"
      },
      "detail": {}
    },
    {
      "uniqueid": "639828932713925",
      "name": "สี่แยกนิด้า",
      "latitude": 13.750740102098,
      "longitude": 100.66074465035,
      "zip": 10240,
      "image": null,
      "link": null,
      "category": {
        "name": "Outdoors",
        "id": "272705352802676"
      },
      "detail": {}
    }
  ],
  "Outlet Store": [],
  "Packaging Supplies & Equipment": [],
  "Paintball": [],
  "Painter": [],
  "Pakistani Restaurant": [],
  "Park": [
    {
      "uniqueid": "176838005661411",
      "name": "Krong Tong Villa Park",
      "latitude": 13.751840472677,
      "longitude": 100.65512627136,
      "zip": 10240,
      "image": null,
      "link": null,
      "category": {
        "name": "Park",
        "id": "115090141929327"
      },
      "detail": {}
    }
  ],
  "Parking": [
    {
      "uniqueid": "176838005661411",
      "name": "Krong Tong Villa Park",
      "latitude": 13.751840472677,
      "longitude": 100.65512627136,
      "zip": 10240,
      "image": null,
      "link": null,
      "category": {
        "name": "Parking",
        "id": "200027430011994"
      },
      "detail": {}
    },
    {
      "uniqueid": "559309407412612",
      "name": "แยกกรุงเทพกรีฑา หัวหมาก กรุงเทพฯ",
      "latitude": 13.748325124804,
      "longitude": 100.65375602736,
      "zip": 10240,
      "image": null,
      "link": null,
      "category": {
        "name": "Parking",
        "id": "200027430011994"
      },
      "detail": {}
    },
    {
      "uniqueid": "149153165265569",
      "name": "Good Will",
      "latitude": 13.754114651552,
      "longitude": 100.65312172686,
      "zip": 10240,
      "image": null,
      "link": null,
      "category": {
        "name": "Parking",
        "id": "200027430011994"
      },
      "detail": {}
    }
  ],
  "Party Center": [],
  "Party Supplies": [],
  "Passport & Visa Service": [],
  "Patent Trademark & Copyright Law": [],
  "Patrol & Security": [],
  "Paving & Asphalt Service": [],
  "Pawn Shop": [],
  "Pediatrics": [],
  "Pentecostal Church": [],
  "Performance Venue": [],
  "Performing Arts Education": [],
  "Persian Restaurant": [],
  "Personal Coaching": [],
  "Personal Trainer": [],
  "Peruvian Restaurant": [],
  "Pest Control": [],
  "Pet Breeder": [],
  "Pet Cemetery": [],
  "Pet Groomer": [],
  "Pet Sitter": [],
  "Pet Store": [],
  "Petroleum Services": [],
  "Petting Zoo": [],
  "Pharmacy": [],
  "Pho Restaurant": [],
  "Photographic Services & Equipment": [],
  "Physical Fitness": [],
  "Physical Therapist": [],
  "Physician Assistant": [],
  "Picnic Ground": [],
  "Pizza Place": [],
  "Plastic Surgery": [],
  "Plastics": [],
  "Playground": [],
  "Plumber": [],
  "Podiatrist": [],
  "Police Station": [],
  "Polish Restaurant": [],
  "Political Organization": [],
  "Polynesian Restaurant": [],
  "Pool & Billiards": [],
  "Port": [],
  "Portable Building Service": [],
  "Portable Toilet Rentals": [],
  "Portuguese Restaurant": [],
  "Post Office": [],
  "Pregnancy & Childbirth Service": [],
  "Presbyterian Church": [],
  "Preschool": [],
  "Printing Service": [
    {
      "uniqueid": "157341521010278",
      "name": "Pixel-Ad Inkjet Printing",
      "latitude": 13.753046562805,
      "longitude": 100.65570762979,
      "zip": 10240,
      "image": null,
      "link": null,
      "category": {
        "name": "Printing Service",
        "id": "197888373555475"
      },
      "detail": {}
    }
  ],
  "Prison & Correctional Facility": [],
  "Private Investigator": [],
  "Private Plane Charter": [],
  "Private School": [],
  "Private Transportation": [],
  "Promotional Item Services": [],
  "Property Law": [],
  "Property Management": [],
  "Psychic": [],
  "Psychologist": [],
  "Pub": [],
  "Public Relations": [],
  "Public School": [],
  "Public Services": [],
  "Public Square": [],
  "Public Transportation": [],
  "Public Utility": [],
  "Race Cars": [],
  "Race Track": [],
  "Racquetball Court": [],
  "Radio & Communication Equipment": [],
  "Rafting": [],
  "Railroad": [],
  "Ramen Restaurant": [],
  "Real Estate Agent": [],
  "Real Estate Appraiser": [],
  "Real Estate Developer": [],
  "Real Estate Investment": [],
  "Real Estate Lawyer": [],
  "Real Estate Service": [],
  "Real Estate Title & Development": [],
  "Recreation Center": [],
  "Recreational Vehicle Dealer": [],
  "Recruiter": [],
  "Recycling & Waste Management": [],
  "Refrigeration": [],
  "Refrigeration Sales & Service": [],
  "Region": [],
  "Religious Book Store": [],
  "Religious Organization": [],
  "Religious School": [],
  "Rent to Own Store": [],
  "Rental Company": [],
  "Rental Shop": [],
  "Repair Service": [
    {
      "uniqueid": "1568931816699548",
      "name": "อู่ช่างดำ Service",
      "latitude": 13.751689050532,
      "longitude": 100.65733104944,
      "zip": 0,
      "image": null,
      "link": null,
      "category": {
        "name": "Repair Service",
        "id": "193198380699462"
      },
      "detail": {}
    },
    {
      "uniqueid": "415305965243997",
      "name": "Pong Auto Service",
      "latitude": 13.748279963994,
      "longitude": 100.65484106204,
      "zip": 10240,
      "image": null,
      "link": null,
      "category": {
        "name": "Repair Service",
        "id": "193198380699462"
      },
      "detail": {}
    },
    {
      "uniqueid": "250313471789920",
      "name": "Ta ซิสเท็ม จก กรุงเทพกรีฑา",
      "latitude": 13.748166,
      "longitude": 100.6513664,
      "zip": 10240,
      "image": null,
      "link": null,
      "category": {
        "name": "Repair Service",
        "id": "193198380699462"
      },
      "detail": {}
    },
    {
      "uniqueid": "1403933256501623",
      "name": "ศูนย์ฟอร์ด สุขาภิบาล 3",
      "latitude": 13.75477146,
      "longitude": 100.66336716,
      "zip": 10240,
      "image": null,
      "link": null,
      "category": {
        "name": "Repair Service",
        "id": "193198380699462"
      },
      "detail": {}
    }
  ],
  "Reproductive Services": [],
  "Research Service": [],
  "Reservoir": [],
  "Resort": [],
  "Restaurant Supply": [],
  "Restaurant Wholesale": [],
  "Retirement & Assisted Living Facility": [],
  "Robotics": [],
  "Rock Climbing": [],
  "Rodeo": [],
  "Roller Coaster": [],
  "Roofer": [],
  "Rubber Service & Supply": [],
  "Russian Restaurant": [],
  "RV Dealership": [],
  "RV Park": [],
  "RV Repair": [],
  "Safety & First Aid Service": [],
  "Salad Bar": [],
  "Salvation Army": [],
  "Sandwich Shop": [],
  "Scandinavian Restaurant": [],
  "School Fundraiser": [],
  "School Transportation": [],
  "Scooter Rental": [],
  "Screen Printing & Embroidery": [],
  "Scuba Diving": [],
  "Seafood Restaurant": [],
  "Seasonal Store": [],
  "Secretarial Service": [],
  "Security": [],
  "Senior Center": [],
  "Septic Tank Service": [],
  "Service Station Supply": [],
  "Seventh Day Adventist Church": [],
  "Sewer Service": [],
  "Sewing & Seamstress": [],
  "Shoe Store": [],
  "Shopping District": [],
  "Shopping Mall": [],
  "Shopping Service": [],
  "Signs & Banner Service": [],
  "Sikh Temple": [],
  "Singaporean Restaurant": [],
  "Ski Resort": [],
  "Ski & Snowboard School": [],
  "Skin Care": [],
  "Sky Diving": [],
  "Smog Check Station": [],
  "Smoothie & Juice Bar": [],
  "Snowmobiles": [],
  "Social Club": [],
  "Social Services": [],
  "Solar Energy Service": [],
  "Sorority & Fraternity": [],
  "Soul Food Restaurant": [],
  "Soup Restaurant": [
    {
      "uniqueid": "1585005571778103",
      "name": "มีนา เนื้อตุ๋นหม้อไฟ",
      "latitude": 13.750996382578,
      "longitude": 100.65645424283,
      "zip": 10240,
      "image": null,
      "link": null,
      "category": {
        "name": "Soup Restaurant",
        "id": "135468489860087"
      },
      "detail": {}
    },
    {
      "uniqueid": "1434983230103333",
      "name": "Shaboo Shabu",
      "latitude": 13.751522616346,
      "longitude": 100.65676717186,
      "zip": 10240,
      "image": null,
      "link": null,
      "category": {
        "name": "Soup Restaurant",
        "id": "135468489860087"
      },
      "detail": {}
    }
  ],
  "Southern Restaurant": [],
  "Southwestern Restaurant": [],
  "Spa": [
    {
      "uniqueid": "518742168137208",
      "name": "Thai-Thai Massage&spa",
      "latitude": 13.748456895314,
      "longitude": 100.65692581039,
      "zip": 10240,
      "image": null,
      "link": null,
      "category": {
        "name": "Spa",
        "id": "200814353265561"
      },
      "detail": {}
    },
    {
      "uniqueid": "687251334648548",
      "name": "Serenity Spa",
      "latitude": 13.753669655994,
      "longitude": 100.65548900115,
      "zip": 10240,
      "image": null,
      "link": null,
      "category": {
        "name": "Spa",
        "id": "200814353265561"
      },
      "detail": {}
    },
    {
      "uniqueid": "186087624823978",
      "name": "Chocolate Beauty Spa",
      "latitude": 13.748313333333,
      "longitude": 100.66299,
      "zip": 10240,
      "image": null,
      "link": null,
      "category": {
        "name": "Spa",
        "id": "200814353265561"
      },
      "detail": {}
    },
    {
      "uniqueid": "114539571973974",
      "name": "Sport, Spa & Beauty",
      "latitude": 13.754981287537,
      "longitude": 100.65811869113,
      "zip": 10240,
      "image": null,
      "link": null,
      "category": {
        "name": "Spa",
        "id": "200814353265561"
      },
      "detail": {}
    },
    {
      "uniqueid": "179684748875691",
      "name": "New Nails & Spa",
      "latitude": 13.753736469443,
      "longitude": 100.65532933114,
      "zip": 10240,
      "image": null,
      "link": null,
      "category": {
        "name": "Spa",
        "id": "200814353265561"
      },
      "detail": {}
    },
    {
      "uniqueid": "415277831889630",
      "name": "Walee Spa and Paraffin",
      "latitude": 13.749441900627,
      "longitude": 100.65029514831,
      "zip": 10240,
      "image": null,
      "link": null,
      "category": {
        "name": "Spa",
        "id": "200814353265561"
      },
      "detail": {}
    }
  ],
  "Spanish Restaurant": [],
  "Specialty Grocery Store": [],
  "Specialty School": [],
  "Speech Pathologist": [],
  "Sporting Goods Store": [],
  "Sports Bar": [],
  "Sports Center": [
    {
      "uniqueid": "638851396170409",
      "name": "Skolphun Sports Center",
      "latitude": 13.746997166403,
      "longitude": 100.65187021619,
      "zip": 10250,
      "image": null,
      "link": null,
      "category": {
        "name": "Sports Center",
        "id": "192998244062607"
      },
      "detail": {}
    }
  ],
  "Sports Club": [
    {
      "uniqueid": "204624819567647",
      "name": "Krungthep Kreeta Golf & Sport Club",
      "latitude": 13.744045951329,
      "longitude": 100.66329941549,
      "zip": 10240,
      "image": null,
      "link": null,
      "category": {
        "name": "Sports Club",
        "id": "189018581118681"
      },
      "detail": {}
    },
    {
      "uniqueid": "1400920180166210",
      "name": "Setthasiri Fitness&sports Club",
      "latitude": 13.7534283,
      "longitude": 100.6638532,
      "zip": 0,
      "image": null,
      "link": null,
      "category": {
        "name": "Sports Club",
        "id": "189018581118681"
      },
      "detail": {}
    }
  ],
  "Sports Instruction": [],
  "Sports Promoter": [],
  "Sports Venue & Stadium": [],
  "Sportswear": [],
  "Startup": [],
  "State": [],
  "State Park": [],
  "Statue & Fountain": [],
  "Steakhouse": [],
  "Storage": [],
  "Storage Service": [],
  "Street": [],
  "Subway & Light Rail Station": [],
  "Supply & Distribution Services": [],
  "Surfing Spot": [],
  "Surveyor": [],
  "Sushi Restaurant": [],
  "Swimming Pool": [
    {
      "uniqueid": "388676784540271",
      "name": "Fitness & Swimming Pool Mantana",
      "latitude": 13.754892075565,
      "longitude": 100.65860504434,
      "zip": 10240,
      "image": null,
      "link": null,
      "category": {
        "name": "Swimming Pool",
        "id": "124887510918208"
      },
      "detail": {}
    }
  ],
  "Swimming Pool Maintenance": [],
  "Swimwear": [],
  "Symphony": [],
  "Synagogue": [],
  "Taiwanese Restaurant": [],
  "Take Out Restaurant": [],
  "Tanning Salon": [],
  "Tanning Salon Supplier": [],
  "Tapas Bar & Restaurant": [],
  "Tattoo & Piercing": [],
  "Tax Preparation": [],
  "Taxi": [],
  "Taxidermist": [],
  "Tea Room": [],
  "Technical Institute": [],
  "Teeth Whitening": [],
  "Telemarketing Service": [],
  "Tennis": [
    {
      "uniqueid": "1459641484291501",
      "name": "Den's Tennis Shoes",
      "latitude": 13.746997166403,
      "longitude": 100.65187021619,
      "zip": 10110,
      "image": null,
      "link": null,
      "category": {
        "name": "Tennis",
        "id": "187950394558510"
      },
      "detail": {}
    }
  ],
  "Tex-Mex Restaurant": [],
  "Textiles": [],
  "Thai Restaurant": [
    {
      "uniqueid": "518742168137208",
      "name": "Thai-Thai Massage&spa",
      "latitude": 13.748456895314,
      "longitude": 100.65692581039,
      "zip": 10240,
      "image": null,
      "link": null,
      "category": {
        "name": "Thai Restaurant",
        "id": "179167895459033"
      },
      "detail": {}
    },
    {
      "uniqueid": "303170883170987",
      "name": "ร้านตำพริกขี้หนู-Prikkienhoo",
      "latitude": 13.75052386,
      "longitude": 100.656784595,
      "zip": 10240,
      "image": null,
      "link": null,
      "category": {
        "name": "Thai Restaurant",
        "id": "179167895459033"
      },
      "detail": {}
    },
    {
      "uniqueid": "445614062268546",
      "name": "ร้านเส้นขนมฯ",
      "latitude": 13.750302260341,
      "longitude": 100.65677583185,
      "zip": 10240,
      "image": null,
      "link": null,
      "category": {
        "name": "Thai Restaurant",
        "id": "179167895459033"
      },
      "detail": {}
    },
    {
      "uniqueid": "522455214522954",
      "name": "Tea Terrace by Mustafa",
      "latitude": 13.753750447765,
      "longitude": 100.65243175981,
      "zip": 10240,
      "image": null,
      "link": null,
      "category": {
        "name": "Thai Restaurant",
        "id": "179167895459033"
      },
      "detail": {}
    },
    {
      "uniqueid": "507272479384627",
      "name": "Zeezบะหมี่จับกัง By Aom",
      "latitude": 13.753723059378,
      "longitude": 100.65551537788,
      "zip": 10240,
      "image": null,
      "link": null,
      "category": {
        "name": "Thai Restaurant",
        "id": "179167895459033"
      },
      "detail": {}
    },
    {
      "uniqueid": "1532656966957436",
      "name": "ก๋วยเตี๋ยวสุโขทัยคุณยายรัตน์จันทร์",
      "latitude": 13.752535700566,
      "longitude": 100.65675840904,
      "zip": 0,
      "image": null,
      "link": null,
      "category": {
        "name": "Thai Restaurant",
        "id": "179167895459033"
      },
      "detail": {}
    },
    {
      "uniqueid": "1388541624721039",
      "name": "โหระพา ก๋วยเตี๋ยวเรือ",
      "latitude": 13.750347817112,
      "longitude": 100.65657561204,
      "zip": 10240,
      "image": null,
      "link": null,
      "category": {
        "name": "Thai Restaurant",
        "id": "179167895459033"
      },
      "detail": {}
    },
    {
      "uniqueid": "1443258992562217",
      "name": "ครัวผักปลา fanpage",
      "latitude": 13.7458637,
      "longitude": 100.65361995,
      "zip": 10240,
      "image": null,
      "link": null,
      "category": {
        "name": "Thai Restaurant",
        "id": "179167895459033"
      },
      "detail": {}
    },
    {
      "uniqueid": "249282055204876",
      "name": "ร้านก๋วยเตี๋ยวเนื้อบังสวนสน(อร่อยมาก",
      "latitude": 13.756215074112,
      "longitude": 100.65144720497,
      "zip": 10240,
      "image": null,
      "link": null,
      "category": {
        "name": "Thai Restaurant",
        "id": "179167895459033"
      },
      "detail": {}
    },
    {
      "uniqueid": "107092942756781",
      "name": "ครัวมุสลิม กรุงเทพกรีฑรา",
      "latitude": 13.748719704917,
      "longitude": 100.65108224638,
      "zip": 10240,
      "image": null,
      "link": null,
      "category": {
        "name": "Thai Restaurant",
        "id": "179167895459033"
      },
      "detail": {}
    },
    {
      "uniqueid": "576466402446415",
      "name": "Rommalulee - ครัวร่มมลุลี",
      "latitude": 13.7540009,
      "longitude": 100.65245709,
      "zip": 10240,
      "image": null,
      "link": null,
      "category": {
        "name": "Thai Restaurant",
        "id": "179167895459033"
      },
      "detail": {}
    },
    {
      "uniqueid": "528188047232795",
      "name": "ก๋วยเตี๋ยว กลางนา",
      "latitude": 13.7457294,
      "longitude": 100.6535721,
      "zip": 10240,
      "image": null,
      "link": null,
      "category": {
        "name": "Thai Restaurant",
        "id": "179167895459033"
      },
      "detail": {}
    },
    {
      "uniqueid": "520374281341773",
      "name": "โขงเจียม ข้าวแกง",
      "latitude": 13.746275905594,
      "longitude": 100.66509330422,
      "zip": 0,
      "image": null,
      "link": null,
      "category": {
        "name": "Thai Restaurant",
        "id": "179167895459033"
      },
      "detail": {}
    }
  ],
  "Theater": [],
  "Theatrical Equipment": [],
  "Theme Park": [],
  "Thrift or Consignment Store": [],
  "Ticket Sales": [],
  "Tire Dealer": [],
  "Tobacco Store": [],
  "Tools Service": [],
  "Airport": [],
  "Bar": [
    {
      "uniqueid": "229475910398556",
      "name": "Barzar Futsal Club",
      "latitude": 13.75384506067,
      "longitude": 100.65239436266,
      "zip": 10240,
      "image": null,
      "link": null,
      "category": {
        "name": "Bar",
        "id": "110290705711626"
      },
      "detail": {}
    },
    {
      "uniqueid": "689500624459983",
      "name": "Ed Bar",
      "latitude": 13.753650283315,
      "longitude": 100.65547966271,
      "zip": 10240,
      "image": null,
      "link": null,
      "category": {
        "name": "Bar",
        "id": "110290705711626"
      },
      "detail": {}
    },
    {
      "uniqueid": "585411634893120",
      "name": "P4U, Place For You , Bar Restaurant",
      "latitude": 13.751453681,
      "longitude": 100.65671696775,
      "zip": 0,
      "image": null,
      "link": null,
      "category": {
        "name": "Bar",
        "id": "110290705711626"
      },
      "detail": {}
    },
    {
      "uniqueid": "135865503272044",
      "name": "Yee-Mah Barber",
      "latitude": 13.755401686693,
      "longitude": 100.65210060298,
      "zip": 10240,
      "image": null,
      "link": null,
      "category": {
        "name": "Bar",
        "id": "110290705711626"
      },
      "detail": {}
    }
  ],
  "Book Store": [],
  "City": [
    {
      "uniqueid": "121361691341681",
      "name": "@ที่ห้อง..ลำสาลี..City",
      "latitude": 13.750016717888,
      "longitude": 100.65180849522,
      "zip": 10240,
      "image": null,
      "link": null,
      "category": {
        "name": "City",
        "id": "224455390913969"
      },
      "detail": {}
    },
    {
      "uniqueid": "221933917967757",
      "name": "Mezzo at Kurve 7 กรุงเทพ",
      "latitude": 13.753588432497,
      "longitude": 100.65521512978,
      "zip": 10240,
      "image": null,
      "link": null,
      "category": {
        "name": "City",
        "id": "224455390913969"
      },
      "detail": {}
    }
  ],
  "Concert Venue": [],
  "Country": [],
  "Doctor": [],
  "Entertainer": [
    {
      "uniqueid": "469522163203574",
      "name": "Pathairat Photographer",
      "latitude": 13.75320067,
      "longitude": 100.65186726,
      "zip": 0,
      "image": null,
      "link": null,
      "category": {
        "name": "Entertainer",
        "id": "177246315652372"
      },
      "detail": {}
    }
  ],
  "Event": [
    {
      "uniqueid": "789917707713740",
      "name": "The Event",
      "latitude": 13.75123016103,
      "longitude": 100.65640085973,
      "zip": 0,
      "image": null,
      "link": null,
      "category": {
        "name": "Event",
        "id": "192119584190796"
      },
      "detail": {}
    }
  ],
  "Home Decor": [],
  "Hotel": [],
  "Island": [],
  "Junior High School": [],
  "Just For Fun": [],
  "Kitchen Supplies": [],
  "Lake": [],
  "Landmark": [],
  "Library": [],
  "Middle School": [],
  "Mountain": [],
  "Museum": [],
  "Neighborhood": [],
  "Newspaper": [],
  "Office Supplies": [],
  "Other": [],
  "Photographer": [
    {
      "uniqueid": "469522163203574",
      "name": "Pathairat Photographer",
      "latitude": 13.75320067,
      "longitude": 100.65186726,
      "zip": 0,
      "image": null,
      "link": null,
      "category": {
        "name": "Photographer",
        "id": "181475575221097"
      },
      "detail": {}
    }
  ],
  "Publisher": [],
  "River": [],
  "School": [
    {
      "uniqueid": "1459341087637997",
      "name": "Treetop School",
      "latitude": 13.75080888544,
      "longitude": 100.65660003314,
      "zip": 10240,
      "image": null,
      "link": null,
      "category": {
        "name": "School",
        "id": "365182493518892"
      },
      "detail": {}
    },
    {
      "uniqueid": "605406812832129",
      "name": "The Jackin' Music School",
      "latitude": 13.753740261498,
      "longitude": 100.65536305594,
      "zip": 10240,
      "image": null,
      "link": null,
      "category": {
        "name": "School",
        "id": "365182493518892"
      },
      "detail": {}
    },
    {
      "uniqueid": "247842798565993",
      "name": "Lamsari School",
      "latitude": 13.75041059816,
      "longitude": 100.65083351227,
      "zip": 0,
      "image": null,
      "link": null,
      "category": {
        "name": "School",
        "id": "365182493518892"
      },
      "detail": {}
    }
  ],
  "Tour Company": [
    {
      "uniqueid": "191643254321336",
      "name": "Maldives Fun Club",
      "latitude": 13.755178987819,
      "longitude": 100.6557766348,
      "zip": 10240,
      "image": null,
      "link": null,
      "category": {
        "name": "Tour Company",
        "id": "189811544396762"
      },
      "detail": {}
    },
    {
      "uniqueid": "225055520884682",
      "name": "สยาม ทราเวล แอนด์ เอเจนซี่",
      "latitude": 13.7492104,
      "longitude": 100.6511688,
      "zip": 10240,
      "image": null,
      "link": null,
      "category": {
        "name": "Tour Company",
        "id": "189811544396762"
      },
      "detail": {}
    },
    {
      "uniqueid": "240524089315020",
      "name": "Butterfly Tours Co., Ltd.",
      "latitude": 13.751208599706,
      "longitude": 100.65885421154,
      "zip": 10240,
      "image": null,
      "link": null,
      "category": {
        "name": "Tour Company",
        "id": "189811544396762"
      },
      "detail": {}
    }
  ],
  "Tour Guide": [],
  "Tourist Attraction": [],
  "Tourist Information": [
    {
      "uniqueid": "1479985848924396",
      "name": "ศาหลักเมือง จังหวัดอำนาจเจริญ",
      "latitude": 13.7534549,
      "longitude": 100.6555173,
      "zip": 0,
      "image": null,
      "link": null,
      "category": {
        "name": "Tourist Information",
        "id": "124947834245370"
      },
      "detail": {}
    }
  ],
  "Towing Service": [],
  "Toy Store": [],
  "Trade School": [],
  "Traffic School": [],
  "Trailer  Rental": [],
  "Train Station": [],
  "Translator": [],
  "Transportation Service": [],
  "Travel Agency": [],
  "Trophies & Engraving": [],
  "Truck Rental": [],
  "Truck Towing": [],
  "Turkish Restaurant": [],
  "Tutoring": [
    {
      "uniqueid": "1459341087637997",
      "name": "Treetop School",
      "latitude": 13.75080888544,
      "longitude": 100.65660003314,
      "zip": 10240,
      "image": null,
      "link": null,
      "category": {
        "name": "Tutoring",
        "id": "145296352197250"
      },
      "detail": {}
    },
    {
      "uniqueid": "621789397859821",
      "name": "โรงเรียนบ้านครูหนวด",
      "latitude": 13.755735,
      "longitude": 100.6512387,
      "zip": 0,
      "image": null,
      "link": null,
      "category": {
        "name": "Tutoring",
        "id": "145296352197250"
      },
      "detail": {}
    }
  ],
  "Upholstery Service": [],
  "Urban Farm": [],
  "Vacation Home Rental": [],
  "Vegetarian & Vegan Restaurant": [],
  "Vending Machine Service": [],
  "Veterinarian": [],
  "Video Games": [],
  "Vietnamese Restaurant": [],
  "Vintage Store": [],
  "Wallpaper": [],
  "Warehouse": [],
  "Waste Management": [],
  "Water Filtration & Treatment": [],
  "Water Park": [],
  "Web Design": [],
  "Web Development": [],
  "Wedding Planning": [],
  "Well Water Drilling Service": [],
  "Wholesale & Supply Store": [],
  "Wig Store": [],
  "Wildlife Sanctuary": [],
  "Wills & Estate Lawyer": [],
  "Window Service & Repair": [],
  "Wine Bar": [],
  "Winery & Vineyard": [],
  "Women's Clothing Store": [],
  "Women's Health": [],
  "Workplace & Office": [],
  "Writing Service": [],
  "Yoga & Pilates": [],
  "Youth Organization": [],
  "Zoo & Aquarium": []
}